JASID,LGC,Site_no,SiteName,Address,Chronology,Lat,Lon,P,J,Y,K,N,H,M,E,D,U
14131000100,14131,川崎区No.1,商工会議所,川崎区駅前本町11-2,古墳　近世,35.53167462,139.6993456,0,0,0,1,0,0,0,1,0,0
14131000200,14131,川崎区No.2,板碑,川崎区中島2-3,中世,35.52931368,139.7155829,0,0,0,0,0,0,1,0,0,0
14131000300,14131,川崎区No.3,小土呂橋,川崎区砂子2丁目（新川通）,近世,35.5280843,139.7002493,0,0,0,0,0,0,0,1,0,0
14131000400,14131,川崎区No.4,小田貝塚,川崎区小田1丁目,古墳　近世,35.51470437,139.7003724,0,0,0,1,0,0,0,1,0,0
14131000500,14131,川崎区No.5,渡田貝塚,川崎区渡田2-14-8ほか,奈良　平安,35.52068445,139.7065694,0,0,0,0,1,1,0,0,0,0
14131000600,14131,川崎区No.6,大島貝塚,川崎区大島2-10-6ほか,奈良　平安,35.5215437,139.7148048,0,0,0,0,1,1,0,0,0,0
14131000700,14131,川崎区No.7,了延庵内,川崎区大島4-23,近世,35.52282541,139.7158602,0,0,0,0,0,0,0,1,0,0
14131000800,14131,川崎区No.8,旧東海道川崎宿跡,川崎区本町1-8-4ほか,近世,35.53242898,139.7029763,0,0,0,0,0,0,0,1,0,0
14132000100,14132,幸区No.1,塚越古墳・板碑,幸区塚越2-180,古墳　中世,35.546993,139.680023,0,0,0,1,0,0,1,0,0,0
14132000200,14132,幸区No.2,南加瀬横穴墓群,幸区南加瀬1-7-17付近,古墳,35.54636732,139.6681877,0,0,0,1,0,0,0,0,0,0
14132000300,14132,幸区No.3,加瀬台遺跡,幸区南加瀬1-2ほか,縄文　弥生,35.55023613,139.6649776,0,1,1,0,0,0,0,0,0,0
14132000400,14132,幸区No.4,加瀬台古墳群,幸区北加瀬1-30ほか,縄文　弥生　古墳　中世,35.54914674,139.6658874,0,1,1,1,0,0,1,0,0,0
14132000500,14132,幸区No.5,白山古墳,幸区南加瀬2-1,古墳　中世,35.5502082,139.6610809,0,0,0,1,0,0,1,0,0,0
14132000600,14132,幸区No.6,第六天古墳,幸区南加瀬2-4,古墳,35.55027803,139.6602054,0,0,0,1,0,0,0,0,0,0
14132000700,14132,幸区No.7,越路遺跡,幸区南加瀬2-11ほ,中世,35.54980317,139.6613384,0,0,0,0,0,0,1,0,0,0
14132000800,14132,幸区No.8,,幸区南加瀬2-2,弥生　奈良　平安,35.54896517,139.6649605,0,0,1,0,1,1,0,0,0,0
14132000900,14132,幸区No.9,,幸区矢上地,旧石器,35.55181432,139.6573559,1,0,0,0,0,0,0,0,0,0
14132001000,14132,幸区No.10,夢見ヶ崎横穴墓,幸区南加瀬1-2ほか,古墳,35.54984507,139.6657329,0,0,0,1,0,0,0,0,0,0
14132001100,14132,幸区No.11,御嶽神社古墳,幸区塚越1-64（御嶽神社）,古墳,35.54656635,139.6788071,0,0,0,1,0,0,0,0,0,0
14133000100,14133,中原区No.1,上丸子古墳,中原区丸子通1-408,古墳,35.58416175,139.6653748,0,0,0,1,0,0,0,0,0,0
14133000200,14133,中原区No.2,,中原区宮内3-8,弥生,35.59043619,139.6435748,0,0,1,0,0,0,0,0,0,0
14133000300,14133,中原区No.3,銚子塚古墳,中原区田尻町2067,古墳,35.56105593,139.6706639,0,0,0,1,0,0,0,0,0,0
14133000400,14133,中原区No.4,,中原区井田2-4ほか,縄文　弥生　古墳,35.559574,139.646378,0,1,1,1,0,0,0,0,0,0
14133000500,14133,中原区No.5,,中原区井田2-27ほか,縄文　弥生,35.56159399,139.6398777,0,1,1,0,0,0,0,0,0,0
14133000600,14133,中原区No.6,井田横穴墓群,中原区井田2-33付近,古墳,35.562023,139.640396,0,0,0,1,0,0,0,0,0,0
14133000700,14133,中原区No.7,井田古墳,中原区井田3-3,古墳,35.56063185,139.6380978,0,0,0,1,0,0,0,0,0,0
14133000800,14133,中原区No.8,井田西遺跡、井田中原遺跡,中原区井田3-34ほか,縄文　弥生　古墳　奈良　平安　中世,35.5606025,139.6378521,0,1,1,1,1,1,1,0,0,0
14133000900,14133,中原区No.9,黄金塚古墳,中原区宮内1-7,古墳,35.59353679,139.6421072,0,0,0,1,0,0,0,0,0,0
14133001000,14133,中原区No.10,井田いりの上遺跡（神庭遺跡・東神庭遺跡）・井田伊勢台遺跡,中原区井田3-13ほか,縄文　弥生　古墳,35.56431702,139.6361184,0,1,1,1,0,0,0,0,0,0
14133001100,14133,中原区No.11,井田中原遺跡,中原区井田3-1485ほか　高津区蟹ヶ谷字池ノ里,縄文　弥生　古墳,35.56205482,139.6344532,0,1,1,1,0,0,0,0,0,0
14133001200,14133,中原区No.12,,中原区井田3-9付近,古墳,35.56451251,139.6372685,0,0,0,1,0,0,0,0,0,0
14133001300,14133,中原区No.13,井田伊勢宮前横穴墓群・井田金堀横穴墓群,中原区井田3-4ほか,古墳,35.56300439,139.6403069,0,0,0,1,0,0,0,0,0,0
14133001400,14133,中原区No.14,,中原区宮内4-9ほか,奈良　近世,35.58645804,139.6448846,0,0,0,0,1,0,0,1,0,0
14133001500,14133,中原区No.15,五領式壺出土,中原区宮内1-7,古墳,35.59389274,139.6424806,0,0,0,1,0,0,0,0,0,0
14133001600,14133,中原区No.16,井田平台経塚,中原区井田2-35ほか,中世,35.56065653,139.6398611,0,0,0,0,0,0,1,0,0,0
14133001700,14133,中原区No.17,,中原区井田2-2,古墳,35.55977858,139.6472077,0,0,0,1,0,0,0,0,0,0
14133001800,14133,中原区No.18,小杉御殿町遺跡・小杉陣屋町遺跡,中原区小杉御殿町1丁目ほか,中世　近世,35.58295396,139.6546049,0,0,0,0,0,0,1,1,0,0
14133001900,14133,中原区No.19,宮内上河原耕地遺跡,中原区宮内1-7付近,古墳,35.59374967,139.6425664,0,0,0,1,0,0,0,0,0,0
14133002000,14133,中原区No.20,小杉町遺跡,中原区小杉町2丁目付近,中世　近世,35.58065092,139.6567905,0,0,0,0,0,0,1,1,0,0
14134000100,14134,高津区No.1,諏訪天神塚古墳,高津区諏訪3-1,古墳,35.60240047,139.6261757,0,0,0,1,0,0,0,0,0,0
14134000200,14134,高津区No.2,諏訪浅間塚古墳,高津区諏訪3-19,古墳,35.60178634,139.6270769,0,0,0,1,0,0,0,0,0,0
14134000300,14134,高津区No.3,二子塚古墳,高津区二子6-5,古墳,35.60043943,139.6214275,0,0,0,1,0,0,0,0,0,0
14134000400,14134,高津区No.4,七面山北横穴墓・溝口西耕地横穴墓群,高津区溝口2-31,古墳,35.60347283,139.6086354,0,0,0,1,0,0,0,0,0,0
14134000500,14134,高津区No.5,宗隆寺古墳群,高津区溝口2-28,古墳,35.60237369,139.6087888,0,0,0,1,0,0,0,0,0,0
14134000600,14134,高津区No.6,七面山南横穴墓群,高津区下作延1-10,古墳,35.60202824,139.6085152,0,0,0,1,0,0,0,0,0,0
14134000700,14134,高津区No.7,,高津区下作延1-13,古墳,35.60266331,139.6074037,0,0,0,1,0,0,0,0,0,0
14134000800,14134,高津区No.8,法泉坊横穴,高津区久地1-1,古墳,35.60454043,139.6074763,0,0,0,1,0,0,0,0,0,0
14134000900,14134,高津区No.9,久地西前田横穴墓群,高津区久地1-1,弥生　古墳,35.60471489,139.6065772,0,0,1,1,0,0,0,0,0,0
14134001000,14134,高津区No.10,西前田横穴墓群（久地浄元寺裏横穴墓群）,高津区久地1-31,古墳,35.6062565,139.6055834,0,0,0,1,0,0,0,0,0,0
14134001100,14134,高津区No.11,浄元寺裏横穴墓,高津区久地1-28,古墳,35.60674498,139.6050169,0,0,0,1,0,0,0,0,0,0
14134001200,14134,高津区No.12,久地神社裏横穴墓群,高津区久地1-39,古墳,35.60762861,139.6044761,0,0,0,1,0,0,0,0,0,0
14134001300,14134,高津区No.13,久地不動台遺跡,高津区久地1-27,古墳,35.60586048,139.6042187,0,0,0,1,0,0,0,0,0,0
14134001400,14134,高津区No.14,津田山坂下横穴墓群,高津区下作延7-29,古墳,35.60401704,139.6064055,0,0,0,1,0,0,0,0,0,0
14134001500,14134,高津区No.15,,高津区下作延7-27,古墳,35.60394028,139.6055966,0,0,0,1,0,0,0,0,0,0
14134001600,14134,高津区No.16,,高津区下作延7-8,古墳,35.602886,139.605469,0,0,0,1,0,0,0,0,0,0
14134001700,14134,高津区No.17,日向古墳,高津区下作延7-12,古墳,35.60363348,139.6039349,0,0,0,1,0,0,0,0,0,0
14134001800,14134,高津区No.18,平瀬川隧道際横穴墓・平瀬川隧道際西横穴墓,高津区下作延7-12,古墳,35.604122,139.603516,0,0,0,1,0,0,0,0,0,0
14134001900,14134,高津区No.19,日向横穴墓群,高津区下作延7-12,古墳,35.604598,139.6033414,0,0,0,1,0,0,0,0,0,0
14134002000,14134,高津区No.20,中之橋横穴墓群,高津区下作延6-7,古墳,35.60382189,139.6024827,0,0,0,1,0,0,0,0,0,0
14134002100,14134,高津区No.21,久地西前田耕地西遺跡,高津区久地1-47,縄文　弥生,35.60748032,139.6020257,0,1,1,0,0,0,0,0,0,0
14134002200,14134,高津区No.22,,高津区下作延6-32,古墳,35.60817814,139.5986611,0,0,0,1,0,0,0,0,0,0
14134002300,14134,高津区No.23,北の谷遺跡,高津区下作延6-30,縄文　弥生,35.60952879,139.597319,0,1,1,0,0,0,0,0,0,0
14134002400,14134,高津区No.24,久地伊屋之免遺跡・久地伊屋之免古墳,高津区久地4-18,縄文　弥生　古墳,35.608223,139.591995,0,1,1,1,0,0,0,0,0,0
14134002500,14134,高津区No.25,緑ヶ丘霊園内遺跡・ビシャモン塚,高津区上作延5-7,縄文　弥生　古墳　平安,35.60728778,139.5887808,0,1,1,1,0,1,0,0,0,0
14134002600,14134,高津区No.26,稲荷塚古墳,高津区下作延1605,古墳,35.60665492,139.592603,0,0,0,1,0,0,0,0,0,0
14134002700,14134,高津区No.27,,高津区下作延5-35,縄文,35.60727599,139.5944409,0,1,0,0,0,0,0,0,0,0
14134002800,14134,高津区No.28,伊屋之免出土板碑,高津区下作延6-21,古墳,35.60619,139.597473,0,0,0,1,0,0,0,0,0,0
14134002900,14134,高津区No.29,津田山古墳,高津区下作延1514ほか,中世,35.605125,139.595062,0,0,0,0,0,0,1,0,0,0
14134003000,14134,高津区No.30,,高津区下作延1329ほか,古墳,35.60200287,139.595767,0,0,0,1,0,0,0,0,0,0
14134003100,14134,高津区No.31,緑ヶ丘霊園内遺跡,高津区上作延26-1,縄文　弥生　古墳,35.604164,139.591476,0,1,1,1,0,0,0,0,0,0
14134003200,14134,高津区No.32,,高津区上作延60,古墳,35.60209533,139.5889306,0,0,0,1,0,0,0,0,0,0
14134003300,14134,高津区No.33,,高津区下作延23付近,奈良　平安,35.60159719,139.5993309,0,0,0,0,1,1,0,0,0,0
14134003400,14134,高津区No.34,,高津区上作延139,奈良　平安,35.60132767,139.5944581,0,0,0,0,1,1,0,0,0,0
14134003500,14134,高津区No.35,,高津区下作延5-10,古墳,35.60026689,139.5992431,0,0,0,1,0,0,0,0,0,0
14134003600,14134,高津区No.36,上作延横穴墓群,高津区下作延5-10,古墳,35.59971556,139.5993118,0,0,0,1,0,0,0,0,0,0
14134003700,14134,高津区No.37,下作延巳ノ谷遺跡・下作延神明神社東南遺跡,高津区下作延4-17,縄文　弥生　古墳　奈良　平安 中世,35.59948169,139.6034538,0,1,1,1,1,1,1,0,0,0
14134003800,14134,高津区No.38,下作延遺跡,高津区下作延2-31,弥生　古墳　奈良　平安,35.59868609,139.6049902,0,0,1,1,1,1,0,0,0,0
14134003900,14134,高津区No.39,,高津区上作延722ほか,縄文　古墳　奈良　平安　中世,35.59823646,139.5875362,0,1,0,1,1,1,1,0,0,0
14134004000,14134,高津区No.40,板碑,高津区上作延755,中世,35.59819065,139.589306,0,0,0,0,0,0,1,0,0,0
14134004100,14134,高津区No.41,上作延南原遺跡,高津区上作延796ほか,縄文　弥生　古墳　奈良　平安,35.59682616,139.5894934,0,1,1,1,1,1,0,0,0,0
14134004200,14134,高津区No.42,上作延南原古墳,高津区上作延814ほか,古墳,35.59846727,139.5914456,0,0,0,1,0,0,0,0,0,0
14134004300,14134,高津区No.43,上作延南原遺跡,高津区上作延824ほか,縄文　弥生　古墳　奈良　平安,35.59735657,139.5912615,0,1,1,1,1,1,0,0,0,0
14134004400,14134,高津区No.44,向ヶ丘南原遺跡,高津区上作延904ほか,縄文,35.59593282,139.593167,0,1,0,0,0,0,0,0,0,0
14134004500,14134,高津区No.45,,高津区向ヶ丘129ほか,縄文,35.59318644,139.5939309,0,1,0,0,0,0,0,0,0,0
14134004600,14134,高津区No.46,,高津区下作延3-27,縄文,35.59144154,139.595214,0,1,0,0,0,0,0,0,0,0
14134004700,14134,高津区No.47,上作延神明社脇遺跡,高津区向ヶ丘28ほか,縄文　弥生,35.59359125,139.5959694,0,1,1,0,0,0,0,0,0,0
14134004800,14134,高津区No.48,上作延南原東遺跡,高津区上作延1066ほか,縄文　奈良　平安,35.59572693,139.5966903,0,1,0,0,1,1,0,0,0,0
14134004900,14134,高津区No.49,上作延神明社脇遺跡,高津区下作延1118ほか,縄文　奈良　平安,35.5956013,139.5990078,0,1,0,0,1,1,0,0,0,0
14134005000,14134,高津区No.50,,高津区下作延3-5,奈良　平安,35.59565714,139.6013123,0,0,0,0,1,1,0,0,0,0
14134005100,14134,高津区No.51,下作延巳ノ谷遺跡・上作延南谷一遺跡,高津区下作延4-51,縄文　弥生　古墳　奈良　平安,35.59716465,139.6028573,0,1,1,1,1,1,0,0,0,0
14134005200,14134,高津区No.52,久保台遺跡,高津区末長1-6,縄文　弥生　古墳　奈良　平安,35.59564318,139.606136,0,1,1,1,1,1,0,0,0,0
14134005300,14134,高津区No.53,,高津区末長1-49,縄文　弥生,35.59381459,139.6044022,0,1,1,0,0,0,0,0,0,0
14134005400,14134,高津区No.54,久本桃之園遺跡・久本梅之園遺跡,高津区久本1-12,縄文　弥生　奈良　平安,35.59646673,139.6097623,0,1,1,0,1,1,0,0,0,0
14134005500,14134,高津区No.55,久本桃之園横穴墓群,高津区久本1-13,古墳,35.59679999,139.6106593,0,0,0,1,0,0,0,0,0,0
14134005600,14134,高津区No.56,久本横穴墓群,高津区久本1-16,古墳,35.59650686,139.6121742,0,0,0,1,0,0,0,0,0,0
14134005700,14134,高津区No.57,末長久保台北遺跡,高津区末長1-1,縄文　弥生　古墳　奈良　平安,35.59494888,139.6108944,0,1,1,1,1,1,0,0,0,0
14134005800,14134,高津区No.58,末長久保台遺跡,高津区末長2-1,縄文　弥生　平安,35.59320751,139.6109717,0,1,1,0,0,1,0,0,0,0
14134005900,14134,高津区No.59,末長火葬墓,高津区久本2-11,平安,35.59348614,139.6121357,0,0,0,0,0,1,0,0,0,0
14134006000,14134,高津区No.60,末長富士見台遺跡,高津区末長2-4,縄文　奈良　平安,35.59210376,139.6127183,0,1,0,0,1,1,0,0,0,0
14134006100,14134,高津区No.61,末長姿見台遺跡,高津区末長1-40,弥生　古墳　奈良,35.59255901,139.606254,0,0,1,1,1,0,0,0,0,0
14134006200,14134,高津区No.62,法界塚古墳,高津区梶ヶ谷2-1-6,古墳,35.59109329,139.6035074,0,0,0,1,0,0,0,0,0,0
14134006300,14134,高津区No.63,清水谷古墳（１号墳）,高津区梶ヶ谷2-1-9,古墳,35.59043022,139.6030439,0,0,0,1,0,0,0,0,0,0
14134006400,14134,高津区No.64,,高津区梶ヶ谷2-10,古墳,35.588848,139.603043,0,0,0,1,0,0,0,0,0,0
14134006500,14134,高津区No.65,梶ヶ谷神明社上遺跡,高津区梶ヶ谷4-14,弥生　古墳　奈良,35.586067,139.602127,0,0,1,1,1,0,0,0,0,0
14134006600,14134,高津区No.66,末長向台遺跡,高津区末長1-41,縄文　古墳　奈良　平安,35.59047908,139.6068376,0,1,0,1,1,1,0,0,0,0
14134006700,14134,高津区No.67,,高津区新作1-23,旧石器,35.58732785,139.6082817,1,0,0,0,0,0,0,0,0,0
14134006800,14134,高津区No.68,西福寺古墳,高津区梶ヶ谷3-17,古墳,35.586037,139.607468,0,0,0,1,0,0,0,0,0,0
14134006900,14134,高津区No.69,大原遺跡・新作小高台遺跡,高津区新作1-9,縄文　古墳　奈良　平安,35.5874692,139.6106806,0,1,0,1,1,1,0,0,0,0
14134007000,14134,高津区No.70,末長遺跡,高津区末長2-25,弥生　古墳,35.58958059,139.6134607,0,0,1,1,0,0,0,0,0,0
14134007100,14134,高津区No.71,薬師院裏遺跡,高津区末長2-27,奈良　平安,35.58755119,139.6139607,0,0,0,0,1,1,0,0,0,0
14134007200,14134,高津区No.72,新作小高台遺跡,高津区新作1-11,縄文　弥生　奈良　平安,35.586475,139.612457,0,1,1,0,1,1,0,0,0,0
14134007300,14134,高津区No.73,新作池ノ谷遺跡,高津区新作1-19,縄文　弥生　奈良　平安,35.58495636,139.6103545,0,1,1,0,1,1,0,0,0,0
14134007400,14134,高津区No.74,,高津区梶ヶ谷5-11,縄文　弥生　古墳　奈良　平安,35.58330901,139.6079856,0,1,1,1,1,1,0,0,0,0
14134007500,14134,高津区No.75,,高津区新作2-3ほか,縄文　弥生　古墳　奈良　平安,35.583229,139.612686,0,1,1,1,1,1,0,0,0,0
14134007600,14134,高津区No.76,井田中原追跡,高津区蟹ヶ谷字池ノ里ほか,縄文　弥生　古墳,35.562927,139.633698,0,1,1,1,0,0,0,0,0,0
14134007700,14134,高津区No.77,新作二丁目遺跡,高津区新作2-15ほか,縄文　弥生　古墳　奈良　平安,35.582893,139.614258,0,1,1,1,1,1,0,0,0,0
14134007800,14134,高津区No.78,新作古墳,高津区新作2-7,古墳,35.582829,139.613129,0,0,0,1,0,0,0,0,0,0
14134007900,14134,高津区No.79,新作貝塚・新作八幡台遺跡・（仏手塚）,高津区新作3-13ほか,縄文　弥生,35.586159,139.616745,0,1,1,0,0,0,0,0,0,0
14134008000,14134,高津区No.80,新作八幡神社裏古墳,高津区新作3-6,古墳,35.585133,139.61795,0,0,0,1,0,0,0,0,0,0
14134008100,14134,高津区No.81,間際根横穴墓群,高津区新作3-14ほか,古墳,35.586067,139.618195,0,0,0,1,0,0,0,0,0,0
14134008200,14134,高津区No.82,,高津区千年1243ほか,弥生　古墳,35.58297599,139.6172981,0,0,1,1,0,0,0,0,0,0
14134008300,14134,高津区No.83,千年-８遺跡,高津区千年1177ほ,縄文　弥生　古墳　奈良　平安,35.58168461,139.6188345,0,1,1,1,1,1,0,0,0,0
14134008400,14134,高津区No.84,,川崎市高津区東野川2-13,古墳,35.56967631,139.6142797,0,0,0,1,0,0,0,0,0,0
14134008500,14134,高津区No.85,野川南耕地遺跡,川崎市高津区東野川2-15,縄文　弥生　古墳　奈良　平安,35.56916316,139.6148247,0,1,1,1,1,1,0,0,0,0
14134008600,14134,高津区No.86,,高津区久末465ほか,縄文　弥生,35.56119925,139.6182428,0,1,1,0,0,0,0,0,0,0
14134008700,14134,高津区No.87,,高津区久末504ほか,縄文,35.56258871,139.6201139,0,1,0,0,0,0,0,0,0,0
14134008800,14134,高津区No.88,,高津区久末1508ほか,縄文,35.56290989,139.622028,0,1,0,0,0,0,0,0,0,0
14134008900,14134,高津区No.89,,高津区久末1580ほか,縄文　弥生,35.5629639,139.6252512,0,1,1,0,0,0,0,0,0,0
14134009000,14134,高津区No.90,,高津区久末1671ほか,縄文　弥生,35.564891,139.62504,0,1,1,0,0,0,0,0,0,0
14134009100,14134,高津区No.91,久末伊勢原遺跡,高津区久末671ほか,縄文　弥生,35.567467,139.619659,0,1,1,0,0,0,0,0,0,0
14134009200,14134,高津区No.92,久末谷遺跡,高津区久末1229ほか,縄文　弥生,35.5701831,139.6201872,0,1,1,0,0,0,0,0,0,0
14134009300,14134,高津区No.93,,高津区千年390付近,古墳,35.57967507,139.623229,0,0,0,1,0,0,0,0,0,0
14134009400,14134,高津区No.94,千年伊勢山台古墳,高津区千年449,古墳,35.57870301,139.6236904,0,0,0,1,0,0,0,0,0,0
14134009500,14134,高津区No.95,千年蟻山遺跡・伊勢山台北遺跡・千年伊勢山台遺跡・伊勢山台東遺跡・影向寺南遺跡,高津区千年520ほか,縄文　弥生　古墳　奈良　平安 中世,35.57739323,139.6224222,0,1,1,1,1,1,1,0,0,0
14134009600,14134,高津区No.96,下原宿遺跡,高津区千年300,縄文　弥生　古墳　奈良　平安,35.57575445,139.6242998,0,1,1,1,1,1,0,0,0,0
14134009700,14134,高津区No.97,,高津区子母口54,中世,35.57507031,139.6233041,0,0,0,0,0,0,1,0,0,0
14134009800,14134,高津区No.98,子母口富士見台古墳,高津区子母口69,古墳,35.57436522,139.6253919,0,0,0,1,0,0,0,0,0,0
14134009900,14134,高津区No.99,子母口植之台遺跡,高津区子母口113ほか,縄文　古墳　奈良　平安　中世,35.57389748,139.6255529,0,1,0,1,1,1,1,0,0,0
14134010000,14134,高津区No.100,子母口植之台遺跡・蓮乗院北遺跡,高津区子母口135ほか,縄文　弥生　古墳　中世　近世,35.57233368,139.6261709,0,1,1,1,0,0,1,1,0,0
14134010100,14134,高津区No.101,子母口貝塚・子母口根方遺跡,高津区子母口240ほか,縄文　弥生　古墳　奈良　平安,35.57222184,139.6283484,0,1,1,1,1,1,0,0,0,0
14134010200,14134,高津区No.102,明津古墳（水塚）,高津区明津183,古墳,35.56814996,139.6340676,0,0,0,1,0,0,0,0,0,0
14134010300,14134,高津区No.103,蟹ヶ谷横穴墓群,高津区蟹ヶ谷108ほか,古墳,35.566327,139.634664,0,0,0,1,0,0,0,0,0,0
14134010400,14134,高津区No.104,蟹ヶ谷古墳群,高津区蟹ヶ谷109,古墳,35.56596181,139.6354982,0,0,0,1,0,0,0,0,0,0
14134010500,14134,高津区No.105,,高津区蟹ヶ谷97,縄文　弥生,35.56562045,139.6356005,0,1,1,0,0,0,0,0,0,0
14134010600,14134,高津区No.106,末長久保台南遺跡,高津区末長1-18,縄文　弥生　古墳　奈良　平安,35.594135,139.608902,0,1,1,1,1,1,0,0,0,0
14134010700,14134,高津区No.107,久末秋谷横穴墓,高津区久末676,古墳,35.56835392,139.6185908,0,0,0,1,0,0,0,0,0,0
14134010800,14134,高津区No.108,蟹ヶ谷横穴墓群 (３号穴）,高津区蟹ヶ谷111,古墳,35.56616025,139.635981,0,0,0,1,0,0,0,0,0,0
14134010900,14134,高津区No.109,鎗ヶ崎遺跡,高津区梶ヶ谷2-14-1,古墳,35.58792401,139.601732,0,0,0,1,0,0,0,0,0,0
14134011000,14134,高津区No.110,千年Ｂ地区横穴墓,高津区千年1117ほか,古墳,35.57984173,139.6213064,0,0,0,1,0,0,0,0,0,0
14134011100,14134,高津区No.111,,高津区久末308ほか,縄文,35.5619254,139.6129557,0,1,0,0,0,0,0,0,0,0
14134011200,14134,高津区No.112,,高津区千年112,古墳,35.58087486,139.6203966,0,0,0,1,0,0,0,0,0,0
14134011300,14134,高津区No.113,久本桃之園古墳,高津区久本1-14,古墳,35.59637713,139.6108432,0,0,0,1,0,0,0,0,0,0
14134011400,14134,高津区No.114,末長久保台古墳群,高津区末長2-25,縄文　古墳,35.5931533,139.6115231,0,1,0,1,0,0,0,0,0,0
14134011500,14134,高津区No.115,子母口富士見台遺跡,高津区子母口54-2,弥生,35.57459909,139.6254713,0,0,1,0,0,0,0,0,0,0
14134011600,14134,高津区No.116,久末表耕地遺跡,高津区久末2035ほか,中世　近世,35.56906605,139.6233629,0,0,0,0,0,0,1,1,0,0
14134011700,14134,高津区No.117,蟹ヶ谷西田原横穴墓群,高津区蟹ヶ谷209,古墳,35.56489095,139.6304697,0,0,0,1,0,0,0,0,0,0
14134011800,14134,高津区No.118,,高津区新作3-10-5ほか,古墳,35.586277,139.614166,0,0,0,1,0,0,0,0,0,0
14134011900,14134,高津区No.119,末長向台１号墳,高津区末長1-41,古墳,35.59109329,139.6053957,0,0,0,1,0,0,0,0,0,0
14134012000,14134,高津区No.120,板碑,高津区北見方2-1,中世,35.59983925,139.6308535,0,0,0,0,0,0,1,0,0,0
14134012100,14134,高津区No.121,久本山古墳,高津区久本1-16,古墳,35.59630795,139.611818,0,0,0,1,0,0,0,0,0,0
14134012200,14134,高津区No.122,末長久保台古墳群,高津区久本2-12,古墳,35.59305853,139.6122249,0,0,0,1,0,0,0,0,0,0
14134012300,14134,高津区No.123,新作キシ遺跡,高津区新作2-11,中世　近世,35.583717,139.616302,0,0,0,0,0,0,1,1,0,0
14134012400,14134,高津区No.124,,高津区千年1123,縄文　古墳　奈良　平安,35.58065149,139.6211862,0,1,0,1,1,1,0,0,0,0
14134012500,14134,高津区No.125,,高津区梶ヶ谷5-10,縄文　古墳　奈良　平安,35.584248,139.606628,0,1,0,1,1,1,0,0,0,0
14134012600,14134,高津区No.126,岩川不動尊跡出土板碑,高津区千年463付近,中世,35.57855117,139.6235788,0,0,0,0,0,0,1,0,0,0
14134012700,14134,高津区No.127,,高津区久末1694ほか,古墳,35.56639904,139.6232428,0,0,0,1,0,0,0,0,0,0
14134012800,14134,高津区No.128,津田山久地横穴墓,高津区久地1-28,古墳,35.60579244,139.6049525,0,0,0,1,0,0,0,0,0,0
14134012900,14134,高津区No.129,津田山横穴墓群,高津区下作延7-12,古墳,35.60419826,139.6032865,0,0,0,1,0,0,0,0,0,0
14134013000,14134,高津区No.130,緑ヶ丘霊園内遺跡,高津区下作延2118,古墳,35.60631037,139.5915913,0,0,0,1,0,0,0,0,0,0
14134013100,14134,高津区No.131,清水谷古墳(２号墳）,高津区梶ヶ谷2-1,古墳,35.5907997,139.6038778,0,0,0,1,0,0,0,0,0,0
14134013200,14134,高津区No.132,,高津区新作1-22,奈良　平安,35.58810263,139.6080199,0,0,0,0,1,1,0,0,0,0
14134013300,14134,高津区No.133,,高津区梶ヶ谷6-3,奈良　平安,35.58445457,139.6086377,0,0,0,0,1,1,0,0,0,0
14134013400,14134,高津区No.134,,高津区久末496ほか,縄文,35.56418063,139.6179768,0,1,0,0,0,0,0,0,0,0
14134013500,14134,高津区No.135,蟹ヶ谷四方之嶺横穴墓,高津区蟹ヶ谷277-1,古墳,35.56597863,139.6314733,0,0,0,1,0,0,0,0,0,0
14134013600,14134,高津区No.136,末長向台２号墳,高津区末長1-37,古墳,35.58932197,139.6077411,0,0,0,1,0,0,0,0,0,0
14134013700,14134,高津区No.137,末長向台３号墳,高津区末長1-43,古墳,35.59085598,139.6062969,0,0,0,1,0,0,0,0,0,0
14134013800,14134,高津区No.138,,高津区北野川6ほか,古墳　奈良　平安,35.57889084,139.6216187,0,0,0,1,1,1,0,0,0,0
14134013900,14134,高津区No.139,久地西前田耕地横穴墓群,高津区久地1-1,古墳,35.60492425,139.6069956,0,0,0,1,0,0,0,0,0,0
14134014000,14134,高津区No.140,緑ヶ丘霊園内南横穴古墳,高津区上作延76-1,古墳,35.60160682,139.590012,0,0,0,1,0,0,0,0,0,0
14134014100,14134,高津区No.141,,高津区上作延88,古墳,35.60145329,139.5909218,0,0,0,1,0,0,0,0,0,0
14134014200,14134,高津区No.142,,高津区宮崎6-3,縄文,35.59340514,139.592177,0,1,0,0,0,0,0,0,0,0
14134014300,14134,高津区No.143,末長向台４号墳,高津区末長1-38,古墳,35.59054887,139.6079277,0,0,0,1,0,0,0,0,0,0
14134014400,14134,高津区No.144,末長向台５号墳,高津区末長1-38,古墳,35.59067451,139.6071209,0,0,0,1,0,0,0,0,0,0
14134014500,14134,高津区No.145,,高津区北見方2-6,古墳,35.60136761,139.6293171,0,0,0,1,0,0,0,0,0,0
14134014600,14134,高津区No.146,末長向台６号墳,高津区末長1-41,古墳,35.59120496,139.6061681,0,0,0,1,0,0,0,0,0,0
14134014700,14134,高津区No.147,影向寺台西遺跡・三荷座前遺跡,宮前区野川本町1-38,縄文　弥生　奈良　平安　中世,35.578056,139.606949,0,1,1,0,1,1,1,0,0,0
14134014800,14134,高津区No.148,影向寺遺跡・影向寺裏貝塚・影向寺台遺跡・影向寺北遺跡,宮前区野川本町3-4,縄文　弥生　古墳　奈良　平安 中世,35.57945191,139.6182874,0,1,1,1,1,1,1,0,0,0
14134014900,14134,高津区No.149,,高津区向ヶ丘167ほか,縄文　弥生,35.59552802,139.5896308,0,1,1,0,0,0,0,0,0,0
14134015000,14134,高津区No.150,,宮前区宮崎3-3-22ほか,縄文　古墳　奈良　平安,35.59211159,139.5934631,0,1,0,1,1,1,0,0,0,0
14134015100,14134,高津区No.151,蟹ヶ谷四方之嶺遺跡,高津区蟹ヶ谷字四方之嶺220付近,縄文　弥生　古墳,35.56643943,139.6311987,0,1,1,1,0,0,0,0,0,0
14136000100,14136,宮前区No.1,野川２号墳,川崎市宮前区野川本町1-28,古墳,35.58141341,139.613862,0,0,0,1,0,0,0,0,0,0
14136000200,14136,宮前区No.2,野川北耕地遺跡,川崎市宮前区野川本町1-29,縄文　弥生　古墳　奈良　平安,35.58021275,139.6145658,0,1,1,1,1,1,0,0,0,0
14136000300,14136,宮前区No.3,野川古墳(1号墳）,川崎市宮前区野川本町1-30,古墳,35.57932621,139.6145658,0,0,0,1,0,0,0,0,0,0
14136000400,14136,宮前区No.4,影向寺台西遺跡・三荷座前遺跡,川崎市宮前区野川本町1-38,縄文　弥生　奈良　平安　中世,35.57912795,139.6165853,0,1,1,0,1,1,1,0,0,0
14136000500,14136,宮前区No.5,影向寺遺跡・影向寺裏貝塚・影向寺台遺跡・影向寺北遺跡,川崎市宮前区野川本町3-4,縄文　弥生　古墳　奈良　平安　中世,35.57859672,139.6188058,0,1,1,1,1,1,1,0,0,0
14136000600,14136,宮前区No.6,野川神明社境内遺跡,川崎市宮前区野川本町3-10,縄文　弥生　古墳　奈良　平安,35.57595795,139.6184797,0,1,1,1,1,1,0,0,0,0
14136000700,14136,宮前区No.7,野川東耕地遺跡,川崎市宮前区野川野川本町2-20,縄文　弥生　古墳　奈良　平安,35.5746874,139.615098,0,1,1,1,1,1,0,0,0,0
14136000800,14136,宮前区No.8,北根古墳,川崎市宮前区野川本町2-6,古墳,35.57638378,139.6130102,0,0,0,1,0,0,0,0,0,0
14136000900,14136,宮前区No.9,十三菩提遺跡,川崎市宮前区野川2345ほか,縄文　弥生　古墳,35.56915811,139.6099919,0,1,1,1,0,0,0,0,0,0
14136001000,14136,宮前区No.10,十三菩提西遺跡,川崎市宮前区野川2290ほか,縄文　弥生　古墳　奈良　平安,35.56762214,139.6072797,0,1,1,1,1,1,0,0,0,0
14136001100,14136,宮前区No.11,,川崎市宮前区西野川3-13,縄文　弥生　古墳　奈良　平安,35.56929773,139.6058034,0,1,1,1,1,1,0,0,0,0
14136001200,14136,宮前区No.12,,川崎市宮前区西野川3-12,縄文　弥生　古墳　奈良　平安,35.56900108,139.6027687,0,1,1,1,1,1,0,0,0,0
14136001300,14136,宮前区No.13,,川崎市宮前区野川2624,平安,35.56803406,139.6041383,0,0,0,0,0,1,0,0,0,0
14136001400,14136,宮前区No.14,,川崎市宮前区野川2618,平安,35.56788227,139.6031957,0,0,0,0,0,1,0,0,0,0
14136001500,14136,宮前区No.15,,川崎市宮前区野川2660ほか,奈良　平安,35.56668141,139.6013932,0,0,0,0,1,1,0,0,0,0
14136001600,14136,宮前区No.16,有馬古墳,川崎市宮前区東有馬5-15ほか,古墳,35.56689261,139.5946834,0,0,0,1,0,0,0,0,0,0
14136001700,14136,宮前区No.17,東有馬遺跡,川崎市宮前区東有馬5-14ほか,縄文　奈良　平安,35.56791195,139.5932929,0,1,0,0,1,1,0,0,0,0
14136001800,14136,宮前区No.18,野川古墳（３号墳）,川崎市宮前区西野川1-38,古墳,35.57784731,139.6083272,0,0,0,1,0,0,0,0,0,0
14136001900,14136,宮前区No.19,,川崎市宮前区梶ヶ谷1117ほか,縄文　奈良　平安,35.57898763,139.6050108,0,1,0,0,1,1,0,0,0,0
14136002000,14136,宮前区No.20,,川崎市宮前区西野川2-16,中世,35.57380428,139.6087551,0,0,0,0,0,0,1,0,0,0
14136002100,14136,宮前区No.21,野川中耕地遺跡,川崎市宮前区西野川2-14,縄文　奈良　平安,35.57413938,139.6080899,0,1,0,0,1,1,0,0,0,0
14136002200,14136,宮前区No.22,,川崎市宮前区野川3119ほか,縄文　弥生　古墳　奈良　平安,35.57518051,139.6025839,0,1,1,1,1,1,0,0,0,0
14136002300,14136,宮前区No.23,,川崎市宮前区西野川3-8,縄文　弥生　古墳　奈良　平安,35.57304427,139.6033907,0,1,1,1,1,1,0,0,0,0
14136002400,14136,宮前区No.24,,川崎市宮前区西野川3-5,平安,35.57185745,139.6051245,0,0,0,0,0,1,0,0,0,0
14136002500,14136,宮前区No.25,,川崎市宮前区西野川3-3,縄文,35.5714865,139.6014466,0,1,0,0,0,0,0,0,0,0
14136002600,14136,宮前区No.26,野川西耕地遺跡,川崎市宮前区野川2935ほか,縄文　奈良　平安,35.57326323,139.5987559,0,1,0,0,1,1,0,0,0,0
14136002700,14136,宮前区No.27,,川崎市宮前区宮崎3-3-22ほか,縄文　古墳　奈良　平安,35.58862586,139.5878976,0,1,0,1,1,1,0,0,0,0
14136002800,14136,宮前区No.28,宮崎大塚古墳,川崎市宮前区宮崎175,古墳,35.590809,139.597214,0,0,0,1,0,0,0,0,0,0
14136002900,14136,宮前区No.29,,川崎市宮前区宮崎85,縄文　弥生,35.58554395,139.6002708,0,1,1,0,0,0,0,0,0,0
14136003000,14136,宮前区No.30,馬絹古墳,川崎市宮前区馬絹5-21,古墳,35.58360344,139.6014381,0,0,0,1,0,0,0,0,0,0
14136003100,14136,宮前区No.31,馬絹神社北遺跡,川崎市宮前区馬絹5-23,縄文,35.58381285,139.6014381,0,1,0,0,0,0,0,0,0,0
14136003200,14136,宮前区No.32,,川崎市宮前区馬絹6-19,平安,35.58346392,139.596452,0,0,0,0,0,1,0,0,0,0
14136003300,14136,宮前区No.33,,川崎市宮前区馬絹1-13,平安,35.58317075,139.5958319,0,0,0,0,0,1,0,0,0,0
14136003400,14136,宮前区No.34,,川崎市宮前区宮崎1-5ほか,縄文,35.58604661,139.5931132,0,1,0,0,0,0,0,0,0,0
14136003500,14136,宮前区No.35,,川崎市宮前区宮崎1-11ほか,古墳,35.58425968,139.5936282,0,0,0,1,0,0,0,0,0,0
14136003600,14136,宮前区No.36,,川崎市宮前区宮崎1-10ほか,縄文　弥生　古墳　奈良　平安,35.58506,139.591782,0,1,1,1,1,1,0,0,0,0
14136003700,14136,宮前区No.37,,川崎市宮前区馬絹2-9,縄文　奈良　平安,35.58149893,139.5920554,0,1,0,0,1,1,0,0,0,0
14136003800,14136,宮前区No.38,,川崎市宮前区馬絹1-15,古墳,35.58142913,139.5872942,0,0,0,1,0,0,0,0,0,0
14136003900,14136,宮前区No.39,小台遺跡,川崎市宮前区小台2-10,縄文　古墳,35.58271904,139.5840513,0,1,0,1,0,0,0,0,0,0
14136004000,14136,宮前区No.40,,川崎市宮前区馬絹1-35,縄文,35.58003301,139.5883475,0,1,0,0,0,0,0,0,0,0
14136004100,14136,宮前区No.41,,川崎市宮前区西野川1-2,縄文,35.57691836,139.5965068,0,1,0,0,0,0,0,0,0,0
14136004200,14136,宮前区No.42,,川崎市宮前区東有馬2-12,縄文,35.576748,139.594742,0,1,0,0,0,0,0,0,0,0
14136004300,14136,宮前区No.43,,川崎市宮前区東有馬1-1,平安,35.57766881,139.5904472,0,0,0,0,0,1,0,0,0,0
14136004400,14136,宮前区No.44,,川崎市宮前区東有馬1-2,平安,35.57673337,139.5900523,0,0,0,0,0,1,0,0,0,0
14136004500,14136,宮前区No.45,東有馬一丁目遺跡・骨蔵器,川崎市宮前区有馬3-4ほか,縄文　弥生　古墳　奈良　平安,35.57773861,139.5880267,0,1,1,1,1,1,0,0,0,0
14136004600,14136,宮前区No.46,,川崎市宮前区東有馬2-36ほか,縄文　平安,35.57323236,139.5939147,0,1,0,0,0,1,0,0,0,0
14136004700,14136,宮前区No.47,,川崎市宮前区東有馬2-32,縄文　奈良　平安,35.57439123,139.5925586,0,1,0,0,1,1,0,0,0,0
14136004800,14136,宮前区No.48,骨蔵器,川崎市宮前区東有馬3-9ほか,縄文　奈良　平安,35.57330217,139.5901897,0,1,0,0,1,1,0,0,0,0
14136004900,14136,宮前区No.49,,川崎市宮前区東有馬3-13,平安,35.5722829,139.5899837,0,0,0,0,0,1,0,0,0,0
14136005000,14136,宮前区No.50,,川崎市宮前区有馬3-18ほか,縄文,35.57567226,139.5866534,0,1,0,0,0,0,0,0,0,0
14136005100,14136,宮前区No.51,有馬遺跡群,川崎市宮前区有馬4-4ほか,縄文,35.57628659,139.5806625,0,1,0,0,0,0,0,0,0,0
14136005200,14136,宮前区No.52,,川崎市宮前区有馬4-3ほか,縄文,35.57586579,139.5799432,0,1,0,0,0,0,0,0,0,0
14136005300,14136,宮前区No.53,,川崎市宮前区有馬5-11ほか,縄文,35.57327075,139.5826537,0,1,0,0,0,0,0,0,0,0
14136005400,14136,宮前区No.54,,川崎市宮前区有馬5-4ほか,縄文,35.57419227,139.5799586,0,1,0,0,0,0,0,0,0,0
14136005500,14136,宮前区No.55,,川崎市宮前区有馬7-1ほか,平安,35.57279603,139.5775382,0,0,0,0,0,1,0,0,0,0
14136005600,14136,宮前区No.56,,川崎市宮前区有馬7-7,縄文,35.57130202,139.5769202,0,1,0,0,0,0,0,0,0,0
14136005700,14136,宮前区No.57,,川崎市宮前区有馬8-19,奈良　平安,35.57304,139.573685,0,0,0,0,1,1,0,0,0,0
14136005800,14136,宮前区No.58,,川崎市宮前区有馬9-15ほか,縄文　奈良,35.570984,139.573746,0,1,0,0,1,0,0,0,0,0
14136005900,14136,宮前区No.59,堂尻谷戸遺跡,川崎市宮前区有馬8-17ほか,中世,35.5730772,139.5723879,0,0,0,0,0,0,1,0,0,0
14136006000,14136,宮前区No.60,,川崎市宮前区有馬8-15,縄文,35.57372645,139.5728342,0,1,0,0,0,0,0,0,0,0
14136006100,14136,宮前区No.61,,川崎市宮前区有馬9-2ほか,縄文,35.5723686,139.5700061,0,1,0,0,0,0,0,0,0,0
14136006200,14136,宮前区No.62,,川崎市宮前区小台1-6ほか,縄文,35.58163712,139.5790243,0,1,0,0,0,0,0,0,0,0
14136006300,14136,宮前区No.63,,川崎市宮前区小台1-10,縄文　弥生　古墳　奈良　平安,35.58003857,139.5792475,0,1,1,1,1,1,0,0,0,0
14136006400,14136,宮前区No.64,,川崎市宮前区小台1-15ほか,縄文,35.57982217,139.5770073,0,1,0,0,0,0,0,0,0,0
14136006500,14136,宮前区No.65,,川崎市宮前区小台1-11ほか,平安,35.57945219,139.5772819,0,0,0,0,0,1,0,0,0,0
14136006600,14136,宮前区No.66,,川崎市宮前区有馬1-1,縄文　平安,35.578433,139.5761318,0,1,0,0,0,1,0,0,0,0
14136006700,14136,宮前区No.67,,川崎市宮前区有馬1-9,平安,35.57828641,139.5790758,0,0,0,0,0,1,0,0,0,0
14136006800,14136,宮前区No.68,,川崎市宮前区有馬4-1ほか,縄文,35.57599338,139.5771091,0,1,0,0,0,0,0,0,0,0
14136006900,14136,宮前区No.69,鷺沼南遺跡,川崎市宮前区鷺沼2-1,縄文,35.57672482,139.5688903,0,1,0,0,0,0,0,0,0,0
14136007000,14136,宮前区No.70,,川崎市宮前区鷺沼3-10ほか,縄文,35.57962185,139.5690791,0,1,0,0,0,0,0,0,0,0
14136007100,14136,宮前区No.71,,川崎市宮前区鷺沼4-3ほか,縄文,35.581367,139.5692508,0,1,0,0,0,0,0,0,0,0
14136007200,14136,宮前区No.72,,川崎市宮前区鷺沼4-9-6,平安,35.58255368,139.5676715,0,0,0,0,0,1,0,0,0,0
14136007300,14136,宮前区No.73,土橋遺跡,川崎市宮前区土橋2-4ほか,縄文,35.58411167,139.5763893,0,1,0,0,0,0,0,0,0,0
14136007400,14136,宮前区No.74,第六天遺跡,川崎市宮前区土橋2-14ほか,縄文,35.58566894,139.5733725,0,1,0,0,0,0,0,0,0,0
14136007500,14136,宮前区No.75,東高根遺跡,川崎市宮前区神木本町2-10,縄文　弥生　古墳　奈良　平安,35.6048945,139.5864184,0,1,1,1,1,1,0,0,0,0
14136007600,14136,宮前区No.76,東高根遺跡,川崎市宮前区神木本町2丁目,縄文　奈良　平安,35.60342,139.585327,0,1,0,0,1,1,0,0,0,0
14136007700,14136,宮前区No.77,,川崎市宮前区神木本町2-22,弥生,35.6030382,139.5862296,0,0,1,0,0,0,0,0,0,0
14136007800,14136,宮前区No.78,,川崎市宮前区神木本町2-11,古墳,35.60202334,139.5875897,0,0,0,1,0,0,0,0,0,0
14136007900,14136,宮前区No.79,長尾鯉坂遺跡,川崎市宮前区神木本町1-28ほ,縄文,35.60514572,139.5827277,0,1,0,0,0,0,0,0,0,0
14136008000,14136,宮前区No.80,長尾権現台遺跡・五所塚,川崎市宮前区五所塚1-1-1ほか,縄文,35.606144,139.576874,0,1,0,0,0,0,0,0,0,0
14136008100,14136,宮前区No.81,,川崎市宮前区五所塚1-6ほか,縄文　奈良　平安,35.605789,139.575912,0,1,0,0,1,1,0,0,0,0
14136008200,14136,宮前区No.82,,川崎市宮前区平1-14,縄文,35.60279918,139.5770006,0,1,0,0,0,0,0,0,0,0
14136008300,14136,宮前区No.83,東泉寺上遺跡,川崎市宮前区平1-11,縄文　弥生　古墳　奈良　平安,35.60242931,139.5785971,0,1,1,1,1,1,0,0,0,0
14136008400,14136,宮前区No.84,,川崎市宮前区平1-10-39,縄文　古墳　奈良　平安,35.60205246,139.5794382,0,1,0,1,1,1,0,0,0,0
14136008500,14136,宮前区No.85,平風久保遺跡・東泉寺上遺跡,川崎市宮前区平1-6,弥生,35.60182914,139.5780134,0,0,1,0,0,0,0,0,0,0
14136008600,14136,宮前区No.86,平風久保遺跡・東泉寺上遺跡,川崎市宮前区平1丁目,弥生,35.60148719,139.5772496,0,0,1,0,0,0,0,0,0,0
14136008700,14136,宮前区No.87,,川崎市宮前区平2-23,縄文　弥生,35.60292305,139.5722564,0,1,1,0,0,0,0,0,0,0
14136008800,14136,宮前区No.88,,川崎市宮前区平2-15ほか,縄文　奈良　平安,35.60205072,139.5742562,0,1,0,0,1,1,0,0,0,0
14136008900,14136,宮前区No.89,風久保遺跡・風久保西遺跡,川崎市宮前区平2-12,縄文　弥生　平安,35.6011051,139.5745051,0,1,1,0,0,1,0,0,0,0
14136009000,14136,宮前区No.90,野川北耕地西遺跡,川崎市宮前区野川本町1-14,縄文　弥生　古墳,35.58008012,139.6127204,0,1,1,1,0,0,0,0,0,0
14136009100,14136,宮前区No.91,,川崎市宮前区平2-16,弥生　奈良　平安,35.60105276,139.5728658,0,0,1,0,1,1,0,0,0,0
14136009200,14136,宮前区No.92,,川崎市宮前区平2-7,縄文　奈良　平安,35.60129003,139.5703166,0,1,0,0,1,1,0,0,0,0
14136009300,14136,宮前区No.93,,川崎市宮前区初山1-3,縄文　奈良　平安,35.60157344,139.5668624,0,1,0,0,1,1,0,0,0,0
14136009400,14136,宮前区No.94,,川崎市宮前区初山1-4,縄文,35.60267531,139.5655444,0,1,0,0,0,0,0,0,0,0
14136009500,14136,宮前区No.95,,川崎市宮前区初山2-7,縄文　奈良　平安,35.5976792,139.5668023,0,1,0,0,1,1,0,0,0,0
14136009600,14136,宮前区No.96,初山遺跡,川崎市宮前区白幡台2-2ほか,縄文,35.59548773,139.5673345,0,1,0,0,0,0,0,0,0,0
14136009700,14136,宮前区No.97,,川崎市宮前区南平台21ほか,縄文,35.59597628,139.5702012,0,1,0,0,0,0,0,0,0,0
14136009800,14136,宮前区No.98,平遺跡,川崎市宮前区神木本町5-12ほか,縄文　弥生,35.59966085,139.579796,0,1,1,0,0,0,0,0,0,0
14136009900,14136,宮前区No.99,長尾古墳,川崎市宮前区神木本町5-3,古墳,35.60006563,139.5821993,0,0,0,1,0,0,0,0,0,0
14136010000,14136,宮前区No.100,,川崎市宮前区神木本町48ほか,縄文　奈良　平安,35.59884431,139.5836348,0,1,0,0,1,1,0,0,0,0
14136010100,14136,宮前区No.101,,川崎市宮前区神木本町3-4,縄文　弥生,35.59936774,139.5847399,0,1,1,0,0,0,0,0,0,0
14136010200,14136,宮前区No.102,,川崎市宮前区神木本町4-18,縄文　弥生　古墳　奈良　平安,35.597305,139.585114,0,1,1,1,1,1,0,0,0,0
14136010300,14136,宮前区No.103,,高津区向ヶ丘167ほか,縄文　弥生,35.59535823,139.5883898,0,1,1,0,0,0,0,0,0,0
14136010400,14136,宮前区No.104,,川崎市宮前区神木2-16ほか,縄文,35.59505553,139.5859649,0,1,0,0,0,0,0,0,0,0
14136010500,14136,宮前区No.105,,川崎市宮前区神木2-11ほか,縄文,35.5958049,139.5840125,0,1,0,0,0,0,0,0,0,0
14136010600,14136,宮前区No.106,,川崎市宮前区神木2-9,縄文　弥生　古墳　奈良　平安,35.59531635,139.5818324,0,1,1,1,1,1,0,0,0,0
14136010700,14136,宮前区No.107,,川崎市宮前区神木本町4-3-4ほか,縄文　弥生　古墳　奈良　平安,35.59786027,139.5818903,0,1,1,1,1,1,0,0,0,0
14136010800,14136,宮前区No.108,,川崎市宮前区平6-1ほか,縄文　奈良　平安,35.59844651,139.5789892,0,1,0,0,1,1,0,0,0,0
14136010900,14136,宮前区No.109,,川崎市宮前区平6-8ほか,縄文　弥生　古墳　奈良　平安,35.59646095,139.5772147,0,1,1,1,1,1,0,0,0,0
14136011000,14136,宮前区No.110,南平遺跡,川崎市宮前区平6-5ほか,縄文,35.5952326,139.5798754,0,1,0,0,0,0,0,0,0,0
14136011100,14136,宮前区No.111,,川崎市宮前区けやき平6-6ほか,縄文,35.59365402,139.5787745,0,1,0,0,0,0,0,0,0,0
14136011200,14136,宮前区No.112,,川崎市宮前区宮崎6-5,縄文　弥生　平安,35.59210496,139.5799074,0,1,1,0,0,1,0,0,0,0
14136011300,14136,宮前区No.113,大野遺跡,川崎市宮前区宮崎6-2,縄文,35.59256561,139.5811262,0,1,0,0,0,0,0,0,0,0
14136011400,14136,宮前区No.114,,川崎市宮前区神木1-6ほか,縄文,35.59315189,139.5823107,0,1,0,0,0,0,0,0,0,0
14136011500,14136,宮前区No.115,,川崎市宮前区宮崎6-3-10,平安,35.59300358,139.5838535,0,0,0,0,0,1,0,0,0,0
14136011600,14136,宮前区No.116,,川崎市宮前区宮崎6-4-6ほか,縄文　平安,35.59310129,139.5846946,0,1,0,0,0,1,0,0,0,0
14136011700,14136,宮前区No.117,,川崎市宮前区宮崎4-1ほか,縄文　弥生　古墳　奈良　平安,35.5932688,139.5862911,0,1,1,1,1,1,0,0,0,0
14136011800,14136,宮前区No.118,,川崎市宮前区宮崎6-2,縄文,35.5918537,139.5841646,0,1,0,0,0,0,0,0,0,0
14136011900,14136,宮前区No.119,,川崎市宮前区宮崎5-4-21ほか,古墳,35.59122233,139.5878118,0,0,0,1,0,0,0,0,0,0
14136012000,14136,宮前区No.120,,川崎市宮前区宮崎5-4ほか,古墳,35.59083147,139.5887044,0,0,0,1,0,0,0,0,0,0
14136012100,14136,宮前区No.121,,川崎市宮前区宮崎3-18,縄文,35.59187842,139.5899919,0,1,0,0,0,0,0,0,0,0
14136012200,14136,宮前区No.122,,川崎市宮前区宮崎2-6-1ほか,縄文,35.58874452,139.5902022,0,1,0,0,0,0,0,0,0,0
14136012300,14136,宮前区No.123,,川崎市宮前区宮崎3-3-18ほか,縄文　弥生,35.592197,139.592865,0,1,1,0,0,0,0,0,0,0
14136012400,14136,宮前区No.124,,川崎市宮前区宮前平3-14ほか,縄文,35.58917029,139.5851628,0,1,0,0,0,0,0,0,0,0
14136012500,14136,宮前区No.125,,川崎市宮前区宮前平3-12ほか,縄文,35.58763994,139.5840792,0,1,0,0,0,0,0,0,0,0
14136012600,14136,宮前区No.126,,川崎市宮前区宮前平2-1ほか,縄文,35.58565062,139.584002,0,1,0,0,0,0,0,0,0,0
14136012700,14136,宮前区No.127,土橋-４遺跡,川崎市宮前区宮前平2-12ほか,縄文　古墳　奈良　平安,35.58764692,139.5828175,0,1,0,1,1,1,0,0,0,0
14136012800,14136,宮前区No.128,,川崎市宮前区宮前平2-20ほか,縄文,35.58934129,139.5809078,0,1,0,0,0,0,0,0,0,0
14136012900,14136,宮前区No.129,,川崎市宮前区宮前平2-20ほか,縄文,35.58890156,139.5785818,0,1,0,0,0,0,0,0,0,0
14136013000,14136,宮前区No.130,,川崎市宮前区土橋7-5ほか,縄文,35.59065349,139.5767106,0,1,0,0,0,0,0,0,0,0
14136013100,14136,宮前区No.131,土橋№６遺跡,川崎市宮前区土橋7-18,縄文,35.59204244,139.5746765,0,1,0,0,0,0,0,0,0,0
14136013200,14136,宮前区No.132,,川崎市宮前区けやき平1,縄文,35.59327713,139.5764914,0,1,0,0,0,0,0,0,0,0
14136013300,14136,宮前区No.133,,川崎市宮前区けやき平10ほか,縄文,35.59350814,139.5734662,0,1,0,0,0,0,0,0,0,0
14136013400,14136,宮前区No.134,,川崎市宮前区けやき平9ほか,旧石器,35.59125723,139.5706832,1,0,0,0,0,0,0,0,0,0
14136013500,14136,宮前区No.135,,川崎市宮前区南平台10,縄文,35.59254241,139.5662873,0,1,0,0,0,0,0,0,0,0
14136013600,14136,宮前区No.136,白井坂埴輪窯跡,川崎市宮前区犬蔵1-1ほか,古墳,35.59233303,139.565944,0,0,0,1,0,0,0,0,0,0
14136013700,14136,宮前区No.137,,川崎市宮前区犬蔵1-12,縄文,35.58977846,139.5633863,0,1,0,0,0,0,0,0,0,0
14136013800,14136,宮前区No.138,,川崎市宮前区犬蔵1-13,縄文,35.58926196,139.5615495,0,1,0,0,0,0,0,0,0,0
14136013900,14136,宮前区No.139,,川崎市宮前区犬蔵1-10ほか,縄文,35.58846625,139.5649827,0,1,0,0,0,0,0,0,0,0
14136014000,14136,宮前区No.140,,川崎市宮前区犬蔵2-16,縄文　弥生　古墳　奈良　平安,35.5868469,139.5629056,0,1,1,1,1,1,0,0,0,0
14136014100,14136,宮前区No.141,,川崎市宮前区犬蔵2-13ほか,縄文　弥生,35.58552068,139.5633519,0,1,1,0,0,0,0,0,0,0
14136014200,14136,宮前区No.142,,川崎市宮前区犬蔵2-33ほか,縄文　奈良　平安,35.58244935,139.56297,0,1,0,0,1,1,0,0,0,0
14136014300,14136,宮前区No.143,,川崎市宮前区犬蔵2-20ほか,縄文,35.587307,139.561432,0,1,0,0,0,0,0,0,0,0
14136014400,14136,宮前区No.144,,川崎市宮前区犬蔵2-27ほか,縄文,35.58626057,139.5612662,0,1,0,0,0,0,0,0,0,0
14136014500,14136,宮前区No.145,,川崎市宮前区犬蔵2-22ほか,縄文　弥生　古墳,35.586812,139.5598415,0,1,1,1,0,0,0,0,0,0
14136014600,14136,宮前区No.146,向ヶ丘南菅生地内遺跡,川崎市宮前区犬蔵2-28ほか,縄文,35.58624661,139.5583695,0,1,0,0,0,0,0,0,0,0
14136014700,14136,宮前区No.147,,川崎市宮前区菅生1-33ほか,縄文　奈良　平安,35.599854,139.555374,0,1,0,0,1,1,0,0,0,0
14136014800,14136,宮前区No.148,,川崎市宮前区菅生1-36,縄文　奈良　平安,35.599854,139.555374,0,1,0,0,1,1,0,0,0,0
14136014900,14136,宮前区No.149,,川崎市宮前区菅生1-12,縄文　弥生　古墳　奈良　平安,35.601372,139.556778,0,1,1,1,1,1,0,0,0,0
14136015000,14136,宮前区No.150,,川崎市宮前区菅生1-9,縄文　弥生　古墳　奈良　平安,35.600735,139.553284,0,1,1,1,1,1,0,0,0,0
14136015100,14136,宮前区No.151,菅生遺跡,川崎市宮前区菅生2-10,縄文　奈良　平安,35.598785,139.552765,0,1,0,0,1,1,0,0,0,0
14136015200,14136,宮前区No.152,,川崎市宮前区菅生2-16ほか,縄文,35.59956,139.547073,0,1,0,0,0,0,0,0,0,0
14136015300,14136,宮前区No.153,,川崎市宮前区菅生2-14,平安,35.598595,139.550064,0,0,0,0,0,1,0,0,0,0
14136015400,14136,宮前区No.154,,川崎市宮前区菅生2-6ほか,縄文　平安,35.596874,139.553757,0,1,0,0,0,1,0,0,0,0
14136015500,14136,宮前区No.155,,川崎市宮前区菅生2-7ほか,（不明）,35.597317,139.554749,0,0,0,0,0,0,0,0,0,1
14136015600,14136,宮前区No.156,,川崎市宮前区菅生1-3ほか,縄文,35.597496,139.55542,0,1,0,0,0,0,0,0,0,0
14136015700,14136,宮前区No.157,,川崎市宮前区菅生3-21ほか,縄文,35.59544,139.549179,0,1,0,0,0,0,0,0,0,0
14136015800,14136,宮前区No.158,,川崎市宮前区菅生3-17ほか,縄文,35.595413,139.550446,0,1,0,0,0,0,0,0,0,0
14136015900,14136,宮前区No.159,,川崎市宮前区菅生4-5ほか,縄文　奈良　平安,35.59212595,139.5535217,0,1,0,0,1,1,0,0,0,0
14136016000,14136,宮前区No.160,菅生カエンヅカ遺跡,川崎市宮前区菅生5-23ほか,縄文,35.59149778,139.5547662,0,1,0,0,0,0,0,0,0,0
14136016100,14136,宮前区No.161,菅生水沢遺跡Ｃ地点,川崎市宮前区水沢1-1,縄文,35.59126397,139.5526247,0,1,0,0,0,0,0,0,0,0
14136016200,14136,宮前区No.162,菅生水沢遺跡Ｂ地点,川崎市宮前区水沢1-1,縄文　古墳,35.59098478,139.5501013,0,1,0,1,0,0,0,0,0,0
14136016300,14136,宮前区No.163,,川崎市宮前区水沢1-2ほか,縄文　弥生　古墳　奈良　平安,35.58964467,139.5475264,0,1,1,1,1,1,0,0,0,0
14136016400,14136,宮前区No.164,菅生水沢遺跡Ａ地点,川崎市宮前区水沢1-1,,35.59109645,139.5486422,0,0,0,0,0,0,0,0,0,0
14136016500,14136,宮前区No.165,菅生水沢遺跡Ｅ地点,川崎市宮前区菅生4-14ほか,奈良　平安,35.59249238,139.5499297,0,0,0,0,1,1,0,0,0,0
14136016600,14136,宮前区No.166,菅生水沢遺跡Ｄ地点・Ｆ地点,川崎市宮前区水沢1-1,縄文　弥生　古墳　奈良　平安,35.59225507,139.5468741,0,1,1,1,1,1,0,0,0,0
14136016700,14136,宮前区No.167,,川崎市宮前区水沢2-9,縄文　奈良　平安,35.59243699,139.5422245,0,1,0,0,1,1,0,0,0,0
14136016800,14136,宮前区No.168,鷲ヶ峰遺跡,川崎市宮前区菅生ケ丘38ほか,縄文,35.598068,139.541092,0,1,0,0,0,0,0,0,0,0
14136016900,14136,宮前区No.169,,川崎市宮前区潮見台7,奈良　平安,35.59608023,139.5394779,0,0,0,0,1,1,0,0,0,0
14136017000,14136,宮前区No.170,潮見台遺跡Ａ地点,川崎市宮前区潮見台3-8ほか,縄文　平安,35.59536835,139.5361649,0,1,0,0,0,1,0,0,0,0
14136017100,14136,宮前区No.171,潮見台遺跡Ｃ地点,川崎市宮前区潮見台2-38ほか,縄文　弥生　古墳　奈良　平安,35.59460062,139.5364224,0,1,1,1,1,1,0,0,0,0
14136017200,14136,宮前区No.172,,川崎市宮前区潮見台18,縄文,35.59208838,139.5337962,0,1,0,0,0,0,0,0,0,0
14136017300,14136,宮前区No.173,,川崎市宮前区潮見台4,縄文　奈良　平安,35.59543814,139.531015,0,1,0,0,1,1,0,0,0,0
14136017400,14136,宮前区No.174,,川崎市宮前区潮見台7,縄文　奈良　平安,35.59365142,139.5290581,0,1,0,0,1,1,0,0,0,0
14136017500,14136,宮前区No.175,,川崎市宮前区潮見台24,縄文,35.59288368,139.5273415,0,1,0,0,0,0,0,0,0,0
14136017600,14136,宮前区No.176,野川東耕地北遺跡,川崎市宮前区野川本町2-8,縄文　古墳　奈良　平安,35.57684542,139.6145986,0,1,0,1,1,1,0,0,0,0
14136017700,14136,宮前区No.177,,川崎市宮前区有馬1-5,縄文　奈良　平安,35.57820962,139.5775223,0,1,0,0,1,1,0,0,0,0
14136017800,14136,宮前区No.178,,川崎市宮前区東有馬1-3,平安,35.57765484,139.5898635,0,0,0,0,0,1,0,0,0,0
14136017900,14136,宮前区No.179,,川崎市宮前区野川本町2-7,縄文　古墳　奈良　平安,35.57679793,139.6134742,0,1,0,1,1,1,0,0,0,0
14136018000,14136,宮前区No.180,,川崎市宮前区西野川1-15,縄文　弥生　古墳　奈良　平安,35.57611596,139.601039,0,1,1,1,1,1,0,0,0,0
14136018100,14136,宮前区No.181,,川崎市宮前区野川3004,縄文,35.575649,139.597168,0,1,0,0,0,0,0,0,0,0
14136018200,14136,宮前区No.182,野川西耕地遺跡,川崎市宮前区野川3013,縄文　古墳,35.57428248,139.5990649,0,1,0,1,0,0,0,0,0,0
14136018300,14136,宮前区No.183,,川崎市宮前区神木本町4-10,弥生,35.59767881,139.5834717,0,0,1,0,0,0,0,0,0,0
14136018400,14136,宮前区No.184,,川崎市宮前区平2-19,古墳,35.60214144,139.5712693,0,0,0,1,0,0,0,0,0,0
14136018500,14136,宮前区No.185,板碑,川崎市宮前区東有馬3-5,中世,35.57246442,139.5872199,0,0,0,0,0,0,1,0,0,0
14136018600,14136,宮前区No.186,,川崎市宮前区菅生1-18,中世,35.601593,139.554016,0,0,0,0,0,0,1,0,0,0
14136018700,14136,宮前区No.187,,川崎市宮前区菅生2-12,縄文,35.599861,139.552963,0,1,0,0,0,0,0,0,0,0
14136018800,14136,宮前区No.188,,川崎市宮前区菅生1-10,縄文,35.599586,139.556305,0,1,0,0,0,0,0,0,0,0
14136018900,14136,宮前区No.189,,川崎市宮前区菅生1-18,縄文　奈良　平安,35.601593,139.554016,0,1,0,0,1,1,0,0,0,0
14136019000,14136,宮前区No.190,,川崎市宮前区水沢3-1,奈良　平安,35.59323221,139.5476809,0,0,0,0,1,1,0,0,0,0
14136019100,14136,宮前区No.191,,川崎市宮前区神木本町1-25ほか,縄文　奈良　平安,35.60428039,139.5821441,0,1,0,0,1,1,0,0,0,0
14136019200,14136,宮前区No.192,,川崎市宮前区有馬4-16,平安,35.57549075,139.5817954,0,0,0,0,0,1,0,0,0,0
14136019300,14136,宮前区No.193,,高津区上作延722ほか,縄文　古墳　奈良　平安　中世,35.59720074,139.5864501,0,1,0,1,1,1,1,0,0,0
14136019400,14136,宮前区No.194,,川崎市宮前区馬絹1-19,古墳,35.58256547,139.5857335,0,0,0,1,0,0,0,0,0,0
14136019600,14136,宮前区No.196,小台西遺跡,川崎市宮前区小台1-3ほか,縄文,35.58320766,139.5798434,0,1,0,0,0,0,0,0,0,0
14136019700,14136,宮前区No.197,梶ヶ谷金山西遺跡,川崎市宮前区梶ヶ谷金山1451付近,縄文,35.57973162,139.6017596,0,1,0,0,0,0,0,0,0,0
14136019800,14136,宮前区No.198,,川崎市宮前区東有馬5-36,縄文,35.56803815,139.5965068,0,1,0,0,0,0,0,0,0,0
14135000100,14135,多摩区No.1,,川崎市多摩区長尾7-8ほか,縄文,35.60811531,139.5860906,0,1,0,0,0,0,0,0,0,0
14135000200,14135,多摩区No.2,下原遺跡,川崎市多摩区長尾7-12,縄文　弥生　古墳　奈良　平安,35.606651,139.584793,0,1,1,1,1,1,0,0,0,0
14135000300,14135,多摩区No.3,新林遺跡,川崎市多摩区長尾7-29ほか,縄文　弥生　古墳　奈良　平安,35.60596949,139.5807562,0,1,1,1,1,1,0,0,0,0
14135000400,14135,多摩区No.4,長尾台遺跡・長尾台北遺跡,川崎市多摩区長尾6-11,縄文　弥生　古墳　奈良　平安,35.60804204,139.5806189,0,1,1,1,1,1,0,0,0,0
14135000500,14135,多摩区No.5,長尾妙楽寺北遺跡,川崎市多摩区長尾3-9,中世,35.60832814,139.578104,0,0,0,0,0,0,1,0,0,0
14135000600,14135,多摩区No.6,妙楽寺出土板碑,川崎市多摩区長尾3-9,中世,35.60831419,139.5767737,0,0,0,0,0,0,1,0,0,0
14135000700,14135,多摩区No.7,大師穴,川崎市多摩区長尾3-10,古墳,35.60925893,139.5761975,0,0,0,1,0,0,0,0,0,0
14135000800,14135,多摩区No.8,,川崎市多摩区長尾3-10-2,縄文,35.60724922,139.5766953,0,1,0,0,0,0,0,0,0,0
14135000900,14135,多摩区No.9,,川崎市多摩区長尾3-10-1,縄文　弥生,35.60689332,139.5768584,0,1,1,0,0,0,0,0,0,0
14135001000,14135,多摩区No.10,,川崎市多摩区東生田4-8,縄文　奈良　平安,35.60405,139.566864,0,1,0,0,1,1,0,0,0,0
14135001100,14135,多摩区No.11,,川崎市多摩区東生田4-10,平安,35.60318602,139.566151,0,0,0,0,0,1,0,0,0,0
14135001200,14135,多摩区No.12,,川崎市多摩区東生田4-11ほか,縄文,35.60345818,139.5658935,0,1,0,0,0,0,0,0,0,0
14135001300,14135,多摩区No.13,,川崎市多摩区東生田4-16ほか,縄文　奈良　平安,35.6050775,139.5638552,0,1,0,0,1,1,0,0,0,0
14135001400,14135,多摩区No.14,登戸富士塚,川崎市多摩区登戸2919,古墳,35.61574045,139.5682664,0,0,0,1,0,0,0,0,0,0
14135001500,14135,多摩区No.15,生田長者穴横穴墓群,川崎市多摩区枡形6-1ほか,古墳,35.61357302,139.563181,0,0,0,1,0,0,0,0,0,0
14135001600,14135,多摩区No.16,廣福寺南遺跡,川崎市多摩区枡形6-7-8,縄文　奈良　平安,35.61382792,139.5591791,0,1,0,0,1,1,0,0,0,0
14135001700,14135,多摩区No.17,生田根岸古墳群,川崎市多摩区枡形4-12ほか,古墳,35.61761933,139.5549691,0,0,0,1,0,0,0,0,0,0
14135001800,14135,多摩区No.18,榎戸遺跡,川崎市多摩区枡形4-12,縄文　弥生　古墳　奈良　平安,35.617504,139.553177,0,1,1,1,1,1,0,0,0,0
14135001900,14135,多摩区No.19,,川崎市多摩区枡形6-26,縄文　奈良　平安,35.61171278,139.5580676,0,1,0,0,1,1,0,0,0,0
14135002000,14135,多摩区No.20,,川崎市多摩区枡形6-26ほか,縄文　奈良　平安,35.610565,139.557922,0,1,0,0,1,1,0,0,0,0
14135002100,14135,多摩区No.21,神明山遺跡,川崎市多摩区三田5-l,縄文,35.60535219,139.5492356,0,1,0,0,0,0,0,0,0,0
14135002200,14135,多摩区No.22,,川崎市多摩区南生田6-5,平安,35.6040949,139.5406947,0,0,0,0,0,1,0,0,0,0
14135002300,14135,多摩区No.23,,川崎市多摩区南生田6-9ほか,縄文,35.60276897,139.5398535,0,1,0,0,0,0,0,0,0,0
14135002400,14135,多摩区No.24,,川崎市多摩区南生田6-32,平安,35.60543477,139.5381541,0,0,0,0,0,1,0,0,0,0
14135002500,14135,多摩区No.25,,川崎市多摩区長沢4-14ほか,縄文,35.59821003,139.5382442,0,1,0,0,0,0,0,0,0,0
14135002600,14135,多摩区No.26,潮見台遺跡Ｂ地点,川崎市多摩区長沢1-22ほか,縄文,35.59700962,139.5361327,0,1,0,0,0,0,0,0,0,0
14135002700,14135,多摩区No.27,,川崎市多摩区南生田2-3ほか,縄文,35.60510109,139.5315528,0,1,0,0,0,0,0,0,0,0
14135002800,14135,多摩区No.28,,川崎市多摩区南生田2-31,縄文,35.60457119,139.5263073,0,1,0,0,0,0,0,0,0,0
14135002900,14135,多摩区No.29,,川崎市多摩区南生田1-29ほか,縄文,35.60651073,139.5285144,0,1,0,0,0,0,0,0,0,0
14135003000,14135,多摩区No.30,,川崎市多摩区南生田1-13ほか,縄文,35.607296,139.529846,0,1,0,0,0,0,0,0,0,0
14135003100,14135,多摩区No.31,,川崎市多摩区栗谷2-19,縄文,35.608334,139.532837,0,1,0,0,0,0,0,0,0,0
14135003200,14135,多摩区No.32,,川崎市多摩区西生田4-20ほか,縄文　古墳　奈良　平安,35.61075344,139.5246691,0,1,0,1,1,1,0,0,0,0
14135003300,14135,多摩区No.33,,川崎市多摩区西生田3-22ほか,縄文　弥生　古墳　奈良　平安,35.610363,139.528244,0,1,1,1,1,1,0,0,0,0
14135003400,14135,多摩区No.34,,川崎市多摩区西生田3-18,縄文　奈良　平安,35.61140937,139.5312266,0,1,0,0,1,1,0,0,0,0
14135003500,14135,多摩区No.35,,川崎市多摩区栗谷2-13,縄文　古墳　奈良　平安,35.609261,139.533813,0,1,0,1,1,1,0,0,0,0
14135003600,14135,多摩区No.36,,川崎市多摩区栗谷4-1ほか,縄文　奈良　平安,35.61235836,139.538711,0,1,0,0,1,1,0,0,0,0
14135003700,14135,多摩区No.37,栗谷遺跡,川崎市多摩区栗谷3-25ほか,縄文　奈良　平安,35.61319569,139.5363936,0,1,0,0,1,1,0,0,0,0
14135003800,14135,多摩区No.38,,川崎市多摩区生田7-18ほか,奈良　平安,35.616055,139.540344,0,0,0,0,1,1,0,0,0,0
14135003900,14135,多摩区No.39,,川崎市多摩区生田6-15,平安,35.6168502,139.5344109,0,0,0,0,0,1,0,0,0,0
14135004000,14135,多摩区No.40,,川崎市多摩区西生田2-9ほか,縄文,35.6158594,139.5343766,0,1,0,0,0,0,0,0,0,0
14135004100,14135,多摩区No.41,,川崎市多摩区西生田2-12ほか,奈良　平安,35.61537097,139.5322823,0,0,0,0,1,1,0,0,0,0
14135004200,14135,多摩区No.42,,川崎市多摩区西生田1-7,縄文　奈良　平安,35.61682229,139.5289693,0,1,0,0,1,1,0,0,0,0
14135004300,14135,多摩区No.43,菅古墳,川崎市多摩区菅馬場4-3,古墳,35.61753399,139.527081,0,0,0,1,0,0,0,0,0,0
14135004400,14135,多摩区No.44,,川崎市多摩区西生田1-1-1,縄文,35.62183193,139.5281796,0,1,0,0,0,0,0,0,0,0
14135004500,14135,多摩No.45,寺尾台廃寺跡,川崎市多摩区寺尾台2-8,奈良　平安,35.62217577,139.5379816,0,0,0,0,1,1,0,0,0,0
14135004600,14135,多摩No.46,,川崎市多摩区菅北浦5-3,縄文　奈良　平安,35.62690601,139.5350462,0,1,0,0,1,1,0,0,0,0
14135004700,14135,多摩No.47,西菅遺跡第１地点,川崎市多摩区菅馬場3-14ほか,縄文,35.62498046,139.5333639,0,1,0,0,0,0,0,0,0,0
14135004800,14135,多摩No.48,西菅遺跡第２地点,川崎市多摩区菅北浦4-6ほか,縄文,35.62516338,139.5296645,0,1,0,0,0,0,0,0,0,0
14135004900,14135,多摩No.49,,川崎市多摩区菅北浦4-6ほか,縄文,35.62538663,139.5261111,0,1,0,0,0,0,0,0,0,0
14135005000,14135,多摩区No.50,,川崎市多摩区菅仙谷3-1ほか,縄文,35.62640522,139.5229697,0,1,0,0,0,0,0,0,0,0
14135005100,14135,多摩No.51,,川崎市多摩区菅北浦4-16-2,中世,35.6285106,139.5311495,0,0,0,0,0,0,1,0,0,0
14135005200,14135,多摩区No.52,小沢城跡,川崎市多摩区菅6516ほか,中世,35.63209792,139.5235662,0,0,0,0,0,0,1,0,0,0
14135005300,14135,多摩区No.53,,川崎市多摩区菅仙谷1-4ほか,縄文　奈良　平安,35.63149645,139.5215193,0,1,0,0,1,1,0,0,0,0
14135005400,14135,多摩区No.54,亀の子山遺跡,川崎市多摩区枡形5-6ほか,縄文　奈良　平安,35.61250651,139.5538791,0,1,0,0,1,1,0,0,0,0
14135005500,14135,多摩区No.55,,川崎市多摩区長沢4-13ほか,縄文　奈良　平安,35.59801461,139.5365962,0,1,0,0,1,1,0,0,0,0
14135005600,14135,多摩区No.56,長沢-17遺跡,川崎市多摩区長沢4-22,近世,35.59751212,139.5360298,0,0,0,0,0,0,0,1,0,0
14135005700,14135,多摩区No.57,,川崎市多摩区枡形6-26ほか,縄文　弥生,35.610565,139.557922,0,1,1,0,0,0,0,0,0,0
14135005800,14135,多摩区No.58,南生田遺跡,川崎市多摩区南生田5-4,中世,35.601879,139.540314,0,0,0,0,0,0,1,0,0,0
14135005900,14135,多摩区No.59,東生田横穴墓,川崎市多摩区東生田2-4527ほか,古墳,35.61245243,139.5644148,0,0,0,1,0,0,0,0,0,0
14135006000,14135,多摩区No.60,枡形山遺跡,川崎市多摩区枡形6-4740ほか,旧石器　縄文　中世,35.6111371,139.5612219,1,1,0,0,0,0,1,0,0,0
14135006100,14135,多摩区No.61,多摩区No.61遺跡,川崎市多摩区宿河原地先,縄文,35.617657,139.58432,0,1,0,0,0,0,0,0,0,0
14135006200,14135,多摩区No.62,,川崎市多摩区南生田2-29,縄文　奈良　平安,35.60349649,139.5279981,0,1,0,0,1,1,0,0,0,0
14135006300,14135,多摩区No.63,東生田緑地内古墳群,川崎市多摩区枡形4丁目付近,古墳,35.61680345,139.5531389,0,0,0,1,0,0,0,0,0,0
14135006400,14135,多摩区No.64,,川崎市多摩区西生田3-3,縄文,35.613583,139.530869,0,1,0,0,0,0,0,0,0,0
14135006500,14135,多摩No.65,寺尾城跡,川崎市多摩区菅馬場2-30,中世,35.624084,139.53833,0,0,0,0,0,0,1,0,0,0
14135006600,14135,多摩区No.66,東高根遺跡,川崎市宮前区神木本町2丁目,縄文　奈良　平安,35.60502042,139.5843697,0,1,0,0,1,1,0,0,0,0
14135006700,14135,多摩区No.67,長尾鯉坂遺跡,川崎市宮前区神木本町1-28ほか,縄文,35.60513208,139.5827732,0,1,0,0,0,0,0,0,0,0
14137000100,14137,麻生区No.1,,川崎市麻生区細山7-11,奈良　平安,35.62453087,139.5137317,0,0,0,0,1,1,0,0,0,0
14137000200,14137,麻生区No.2,,川崎市麻生区細山7-8,縄文,35.62390295,139.5123412,0,1,0,0,0,0,0,0,0,0
14137000300,14137,麻生区No.3,細山代官山遺跡,川崎市麻生区細山8-16ほか,弥生　古墳　奈良　平安,35.62193547,139.5110709,0,0,1,1,1,1,0,0,0,0
14137000400,14137,麻生区No.4,,川崎市麻生区細山8-7ほか,縄文　奈良　平安,35.6206796,139.5112941,0,1,0,0,1,1,0,0,0,0
14137000500,14137,麻生区No.5,細山遺跡,川崎市麻生区千代ヶ丘9-11ほか,弥生　奈良　平安,35.61885746,139.5087661,0,0,1,0,1,1,0,0,0,0
14137000600,14137,麻生区No.6,,川崎市麻生区細山4-22ほか,縄文　奈良　平安,35.61885746,139.5116672,0,1,0,0,1,1,0,0,0,0
14137000700,14137,麻生区No.7,,川崎市麻生区細山5-12,縄文,35.6186634,139.5170764,0,1,0,0,0,0,0,0,0,0
14137000800,14137,麻生区No.8,,川崎市麻生区細山5-24ほか,縄文,35.6210674,139.5166098,0,1,0,0,0,0,0,0,0,0
14137000900,14137,麻生区No.9,,川崎市麻生区細山1-10ほか,縄文　奈良　平安,35.61974175,139.518172,0,1,0,0,1,1,0,0,0,0
14137001000,14137,麻生区No.10,,川崎市麻生区多摩美2-12ほか,縄文　奈良　平安,35.61988129,139.5209185,0,1,0,0,1,1,0,0,0,0
14137001100,14137,麻生区No.11,,川崎市麻生区細山6-6ほか,縄文,35.62113717,139.5203006,0,1,0,0,0,0,0,0,0,0
14137001100,14137,麻生区No.11,,川崎市麻生区細山6-6ほか,縄文,35.62113717,139.5203006,0,1,0,0,0,0,0,0,0,0
14137001100,14137,麻生区No.11,,川崎市麻生区細山6-6ほか,縄文,35.621471,139.518585,0,1,0,0,0,0,0,0,0,0
14137001100,14137,麻生区No.11,,川崎市麻生区細山6-6ほか,縄文,35.621471,139.518585,0,1,0,0,0,0,0,0,0,0
14137001200,14137,麻生区No.12,香林寺北遺跡,川崎市麻生区細山3-8ほか,縄文　奈良　平安,35.61610026,139.5122518,0,1,0,0,1,1,0,0,0,0
14137001300,14137,麻生区No.13,,川崎市麻生区千代ヶ丘6-8-3,平安,35.61610026,139.5107584,0,0,0,0,0,1,0,0,0,0
14137001400,14137,麻生区No.14,,川崎市麻生区千代ヶ丘6-6ほか,縄文,35.61644913,139.5100374,0,1,0,0,0,0,0,0,0,0
14137001500,14137,麻生区No.15,坂東谷遺跡,川崎市麻生区千代ヶ丘6-3-22,平安,35.61530482,139.5102091,0,0,0,0,0,1,0,0,0,0
14137001600,14137,麻生区No.16,弦巻遺跡・稲荷森遺跡,川崎市麻生区高石3-25ほか,縄文　弥生　古墳　奈良　平安,35.61470475,139.5191183,0,1,1,1,1,1,0,0,0,0
14137001700,14137,麻生区No.17,高石経塚,川崎市麻生区高石1-26ほか,中世,35.61217881,139.5160799,0,0,0,0,0,0,1,0,0,0
14137001800,14137,麻生区No.18,,川崎市麻生区高石2-6,縄文　弥生,35.61233232,139.5120115,0,1,1,0,0,0,0,0,0,0
14137001900,14137,麻生区No.19,,川崎市麻生区高石2-2ほか,縄文　奈良　平安,35.61058686,139.5113983,0,1,0,0,1,1,0,0,0,0
14137002000,14137,麻生区No.20,,川崎市麻生区高石5-15ほか,縄文　奈良　平安,35.60452277,139.5216751,0,1,0,0,1,1,0,0,0,0
14137002100,14137,麻生区No.21,,川崎市麻生区東百合丘2-20,縄文,35.59838531,139.5255762,0,1,0,0,0,0,0,0,0,0
14137002200,14137,麻生区No.22,生田ナベコロガシ遺跡,川崎市麻生区東百合丘2-5,平安,35.60017192,139.5272241,0,0,0,0,0,1,0,0,0,0
14137002300,14137,麻生区No.23,,川崎市麻生区王禅寺東1-30,縄文,35.59367315,139.5218992,0,1,0,0,0,0,0,0,0,0
14137002400,14137,麻生区No.24,日吉谷遺跡,川崎市麻生区王禅寺東2-42,縄文　奈良　平安,35.59050441,139.5194058,0,1,0,0,1,1,0,0,0,0
14137002500,14137,麻生区No.25,細山経塚遺跡,川崎市麻生区千代ヶ丘7-12,中世,35.615566,139.506531,0,0,0,0,0,0,1,0,0,0
14137002600,14137,麻生区No.26,,川崎市麻生区千代ヶ丘5-8-2,平安,35.61428081,139.5080933,0,0,0,0,0,1,0,0,0,0
14137002700,14137,麻生区No.27,,川崎市麻生区千代ヶ丘3-17ほか,奈良　平安,35.61321125,139.5078738,0,0,0,0,1,1,0,0,0,0
14137002800,14137,麻生区No.28,,川崎市麻生区金程4-19ほか,縄文,35.614174,139.503677,0,1,0,0,0,0,0,0,0,0
14137002900,14137,麻生区No.29,細山向原遺跡,川崎市麻生区向原2-2ほか,縄文,35.61384622,139.4958232,0,1,0,0,0,0,0,0,0,0
14137003000,14137,麻生区No.30,金程向原遺跡第３地点,川崎市麻生区金程2-10ほか,縄文,35.61158542,139.4990504,0,1,0,0,0,0,0,0,0,0
14137003100,14137,麻生区No.31,,川崎市麻生区金程1-38,縄文,35.61053524,139.5024279,0,1,0,0,0,0,0,0,0,0
14137003200,14137,麻生区No.32,,川崎市麻生区万福寺215ほか,奈良　平安,35.60676765,139.5036008,0,0,0,0,1,1,0,0,0,0
14137003300,14137,麻生区No.33,,川崎市麻生区万福寺379ほか,縄文　弥生,35.60830287,139.506931,0,1,1,0,0,0,0,0,0,0
14137003400,14137,麻生区No.34,,川崎市麻生区万福寺395ほか,弥生　古墳,35.60835869,139.5088879,0,0,1,1,0,0,0,0,0,0
14137003500,14137,麻生区No.35,,川崎市麻生区万福寺550ほか,縄文　弥生　古墳　奈良　平安,35.60824351,139.5109276,0,1,1,1,1,1,0,0,0,0
14137003600,14137,麻生区No.36,,川崎市麻生区古沢246ほか,縄文　奈良　平安,35.60433912,139.4991988,0,1,0,0,1,1,0,0,0,0
14137003700,14137,麻生区No.37,,川崎市麻生区五力田247ほか,近世,35.60461305,139.4906487,0,0,0,0,0,0,0,1,0,0
14137003800,14137,麻生区No.38,,川崎市麻生区五力田249ほか,縄文　弥生　古墳　奈良　平安,35.60442287,139.4909762,0,1,1,1,1,1,0,0,0,0
14137003900,14137,麻生区No.39,,川崎市麻生区古沢578ほか,縄文,35.60514863,139.4945125,0,1,0,0,0,0,0,0,0,0
14137004000,14137,麻生区No.40,,川崎市麻生区古沢564ほか,縄文　奈良　平安,35.60470201,139.4959544,0,1,0,0,1,1,0,0,0,0
14137004100,14137,麻生区No.41,,川崎市麻生区古沢228ほか,縄文,35.6036971,139.4974822,0,1,0,0,0,0,0,0,0,0
14137004200,14137,麻生区No.42,古沢都古遺跡,川崎市麻生区古沢287ほか,奈良　平安,35.60298528,139.4992846,0,0,0,0,1,1,0,0,0,0
14137004300,14137,麻生区No.43,五力田西遺跡,川崎市麻生区五力田2-11ほか,縄文,35.60047484,139.4908478,0,1,0,0,0,0,0,0,0,0
14137004400,14137,麻生区No.44,五力田東遺跡,川崎市麻生区五力田2-3ほか,縄文　弥生,35.59960795,139.4933967,0,1,1,0,0,0,0,0,0,0
14137004500,14137,麻生区No.45,,川崎市麻生区五力田3-16ほか,縄文　弥生　古墳　奈良　平安,35.60069666,139.4958,0,1,1,1,1,1,0,0,0,0
14137004600,14137,麻生区No.46,,川崎市麻生区五力田3-4ほか,縄文　弥生　古墳　奈良　平安,35.60020814,139.4979457,0,1,1,1,1,1,0,0,0,0
14137004700,14137,麻生区No.47,菓積台遺跡,川崎市麻生区片平1-8ほか,縄文　奈良　平安,35.59960795,139.4993877,0,1,0,0,1,1,0,0,0,0
14137004800,14137,麻生区No.48,山口台遺跡群上台遺跡,川崎市麻生区上麻生4-41,縄文　弥生　古墳　奈良　平安,35.596593,139.5020656,0,1,1,1,1,1,0,0,0,0
14137004900,14137,麻生区No.49,上麻生日光台遺跡,川崎市麻生区上麻生5-10,縄文,35.59325687,139.5009155,0,1,0,0,0,0,0,0,0,0
14137005000,14137,麻生区No.50,大ヶ谷戸遺跡,川崎市麻生区上麻生5-21ほか,縄文　弥生　古墳　奈良　平安,35.59131655,139.5001773,0,1,1,1,1,1,0,0,0,0
14137005100,14137,麻生区No.51,,川崎市麻生区王禅寺西7-17,弥生,35.58627708,139.5048122,0,0,1,0,0,0,0,0,0,0
14137005200,14137,麻生区No.52,王禅寺白山横穴墓群,川崎市麻生区王禅寺1857ほか,古墳,35.5852252,139.5075783,0,0,0,1,0,0,0,0,0,0
14137005300,14137,麻生区No.53,下麻生古墳群,川崎市麻生区下麻生1094,古墳,35.580406,139.508514,0,0,0,1,0,0,0,0,0,0
14137005400,14137,麻生区No.54,東柿生小学校北遺跡,川崎市麻生区王禅寺133ほか,縄文　弥生　古墳　奈良　平安,35.58036705,139.510942,0,1,1,1,1,1,0,0,0,0
14137005500,14137,麻生区No.55,,川崎市麻生区王禅寺24-2,縄文　古墳　奈良　平安,35.57968295,139.5129505,0,1,0,1,1,1,0,0,0,0
14137005600,14137,麻生区No.56,,川崎市麻生区王禅寺183ほか,縄文　弥生　古墳　奈良　平安,35.5795573,139.5139118,0,1,1,1,1,1,0,0,0,0
14137005700,14137,麻生区No.57,,川崎市麻生区王禅寺288,縄文　弥生　古墳　奈良　平安,35.57915786,139.5176122,0,1,1,1,1,1,0,0,0,0
14137005800,14137,麻生区No.58,,川崎市麻生区王禅寺305ほか,縄文　弥生,35.57876693,139.5188997,0,1,1,0,0,0,0,0,0,0
14137005900,14137,麻生区No.59,,川崎市麻生区王禅寺310ほか,縄文,35.57826432,139.5185907,0,1,0,0,0,0,0,0,0,0
14137006000,14137,麻生区No.60,,川崎市麻生区早野28,縄文　弥生　古墳　奈良　平安,35.57684022,139.5140588,0,1,1,1,1,1,0,0,0,0
14137006100,14137,麻生区No.61,東柿生小学校内遺跡,川崎市麻生区王禅寺94ほか,縄文　弥生　古墳　奈良　平安 中世,35.57848934,139.5111038,0,1,1,1,1,1,1,0,0,0
14137006200,14137,麻生区No.62,牛塚古墳,川崎市麻生区王禅寺56,古墳,35.57832181,139.5124428,0,0,0,1,0,0,0,0,0,0
14137006300,14137,麻生区No.63,狐塚古墳,川崎市麻生区王禅寺94,古墳,35.57804074,139.5129464,0,0,0,1,0,0,0,0,0,0
14137006400,14137,麻生区No.64,子ノ神神社古墳,川崎市麻生区早野67,古墳,35.576031,139.512787,0,0,0,1,0,0,0,0,0,0
14137006500,14137,麻生区No.65,,川崎市麻生区早野950ほか,縄文　弥生　古墳　奈良　平安,35.57314025,139.5153463,0,1,1,1,1,1,0,0,0,0
14137006600,14137,麻生区No.66,,川崎市麻生区早野932ほか,縄文　古墳　奈良　平安,35.57213495,139.5163591,0,1,0,1,1,1,0,0,0,0
14137006700,14137,麻生区No.67,早野横穴墓,川崎市麻生区早野889ほか,古墳,35.57272137,139.5174234,0,0,0,1,0,0,0,0,0,0
14137006800,14137,麻生区No.68,早野上ノ原遺跡,川崎市麻生区早野798ほか,旧石器　縄文　弥生　古墳 奈良　平安　中世　近世,35.57052922,139.5190885,1,1,1,1,1,1,1,1,0,0
14137006900,14137,麻生区No.69,,川崎市麻生区早野718ほか,奈良　平安,35.57065724,139.516531,0,0,0,0,1,1,0,0,0,0
14137007000,14137,麻生区No.70,,川崎市麻生区早野634ほか,縄文　弥生　古墳　奈良　平安,35.5685325,139.515312,0,1,1,1,1,1,0,0,0,0
14137007100,14137,麻生区No.71,亀井古墳群,川崎市麻生区上麻生7-38,縄文　古墳,35.58024354,139.5053325,0,1,0,1,0,0,0,0,0,0
14137007200,14137,麻生区No.72,,川崎市麻生区上麻生7-41,縄文　弥生　古墳　奈良　平安 中世,35.57897306,139.5057273,0,1,1,1,1,1,1,0,0,0
14137007300,14137,麻生区No.73,,川崎市麻生区上麻生7-27,縄文　弥生　古墳　奈良　平安,35.58009766,139.502813,0,1,1,1,1,1,0,0,0,0
14137007400,14137,麻生区No.74,,川崎市麻生区上麻生7-16,縄文,35.58193858,139.501048,0,1,0,0,0,0,0,0,0,0
14137007500,14137,麻生区No.75,,川崎市麻生区片平3-10ほか,縄文　弥生　古墳　奈良　平安,35.58983765,139.492866,0,1,1,1,1,1,0,0,0,0
14137007600,14137,麻生区No.76,,川崎市麻生区片平4-8ほか,奈良　平安,35.59211069,139.4903284,0,0,0,0,1,1,0,0,0,0
14137007700,14137,麻生区No.77,仲町遺跡,川崎市麻生区片平3-27ほか,縄文,35.59103293,139.4886979,0,1,0,0,0,0,0,0,0,0
14137007800,14137,麻生区No.78,,川崎市麻生区片平4-14ほか,縄文　奈良　平安,35.59374742,139.4873738,0,1,0,0,1,1,0,0,0,0
14137007900,14137,麻生区No.79,,川崎市麻生区片平2014ほか,縄文　奈良　平安,35.59522704,139.4860177,0,1,0,0,1,1,0,0,0,0
14137008000,14137,麻生区No.80,,川崎市麻生区片平1785ほか,縄文　奈良　平安,35.59625998,139.4831337,0,1,0,0,1,1,0,0,0,0
14137008100,14137,麻生区No.81,桐光学園第ニグラウンド建設予定地内遺跡,川崎市麻生区片平1642ほか,縄文　奈良　平安,35.5982679,139.4827657,0,1,0,0,1,1,0,0,0,0
14137008200,14137,麻生区No.82,,川崎市麻生区片平1610ほか,縄文　奈良　平安,35.59689825,139.4798765,0,1,0,0,1,1,0,0,0,0
14137008300,14137,麻生区No.83,片平富士塚,川崎市麻生区片平748ほか,古墳,35.59672551,139.4798636,0,0,0,1,0,0,0,0,0,0
14137008400,14137,麻生区No.84,,川崎市麻生区片平1556ほか,縄文　弥生　古墳　奈良　平安,35.60019214,139.4812781,0,1,1,1,1,1,0,0,0,0
14137008500,14137,麻生区No.85,,川崎市麻生区栗木249ほか,縄文　平安,35.60273241,139.4772033,0,1,0,0,0,1,0,0,0,0
14137008600,14137,麻生区No.86,栗木南IV遺跡,川崎市麻生区栗木227ほか,縄文　奈良　平安,35.6003038,139.4773235,0,1,0,0,1,1,0,0,0,0
14137008700,14137,麻生区No.87,,川崎市麻生区栗木3-9ほか,縄文,35.60199267,139.4719676,0,1,0,0,0,0,0,0,0,0
14137008800,14137,麻生区No.88,,川崎市麻生区栗木3-2ほか,縄文,35.60518887,139.4705257,0,1,0,0,0,0,0,0,0,0
14137008900,14137,麻生区No.89,,川崎市麻生区栗木2-5ほか,縄文,35.60761733,139.4701995,0,1,0,0,0,0,0,0,0,0
14137009000,14137,麻生区No.90,栗木第一遺跡,川崎市麻生区栗木台2-13ほか,縄文,35.61120406,139.4732894,0,1,0,0,0,0,0,0,0,0
14137009100,14137,麻生区No.91,栗木III遺跡,川崎市麻生区南黒川4ほか,縄文,35.61250369,139.4713722,0,1,0,0,0,0,0,0,0,0
14137009200,14137,麻生区No.92,,川崎市麻生区南黒川5ほか,縄文　弥生,35.61336195,139.4722637,0,1,1,0,0,0,0,0,0,0
14137009300,14137,麻生区No.93,栗木IV遺跡,川崎市麻生区黒川404ほか,縄文　弥生　古墳　奈良　平安,35.61377364,139.4733463,0,1,1,1,1,1,0,0,0,0
14137009400,14137,麻生区No.94,黒川東第２遺跡,川崎市麻生区黒川459ほか,縄文,35.61688563,139.4744621,0,1,0,0,0,0,0,0,0,0
14137009500,14137,麻生区No.95,黒川東遺跡,川崎市麻生区黒川527ほか,縄文,35.61747173,139.4756809,0,1,0,0,0,0,0,0,0,0
14137009600,14137,麻生区No.96,黒川地区遺跡群宮添遺跡,川崎市麻生区黒川692ほか,縄文,35.61709495,139.4702564,0,1,0,0,0,0,0,0,0,0
14137009700,14137,麻生区No.97,黒川地区遺跡群宮添遺跡,川崎市麻生区黒川92ほか,縄文,35.61602043,139.4687114,0,1,0,0,0,0,0,0,0,0
14137009800,14137,麻生区No.98,黒川地区遺跡群谷ツ遺跡,川崎市麻生区黒川710ほか,縄文　弥生,35.61762564,139.4681258,0,1,1,0,0,0,0,0,0,0
14137009900,14137,麻生区No.99,黒川台東遺跡・黒川地区遺跡群No.５遺跡,川崎市麻生区黒川1041ほか,縄文,35.61850438,139.4655357,0,1,0,0,0,0,0,0,0,0
14137010000,14137,麻生区No.100,黒川台西遺跡・黒川地区遺跡群No.16遺跡,川崎市麻生区黒川1073ほか,縄文,35.61885365,139.4635253,0,1,0,0,0,0,0,0,0,0
14137010100,14137,麻生区No.101,黒川地区遺跡群No.３遺跡,川崎市麻生区黒川936ほか,縄文,35.62245383,139.4637656,0,1,0,0,0,0,0,0,0,0
14137010200,14137,麻生区No.102,黒川海道遺跡,川崎市麻生区黒川1444ほか,縄文,35.61700425,139.4554224,0,1,0,0,0,0,0,0,0,0
14137010300,14137,麻生区No.103,,川崎市麻生区黒川1649ほか,縄文　弥生　古墳　奈良　平安,35.61764213,139.4530028,0,1,1,1,1,1,0,0,0,0
14137010400,14137,麻生区No.104,,川崎市麻生区黒川2046ほか,縄文　弥生,35.6059385,139.4539792,0,1,1,0,0,0,0,0,0,0
14137010500,14137,麻生区No.105,,川崎市麻生区岡上526ほか,縄文　弥生　古墳　奈良　平安,35.57984618,139.476636,0,1,1,1,1,1,0,0,0,0
14137010600,14137,麻生区No.106,,川崎市麻生区岡上593ほか,奈良　平安,35.57889802,139.4785373,0,0,0,0,1,1,0,0,0,0
14137010700,14137,麻生区No.107,,川崎市麻生区岡上585ほか,奈良　平安,35.578179,139.4787776,0,0,0,0,1,1,0,0,0,0
14137010800,14137,麻生区No.108,,川崎市麻生区岡上540,縄文　弥生　古墳　奈良　平安,35.5778509,139.4767177,0,1,1,1,1,1,0,0,0,0
14137010900,14137,麻生区No.109,,川崎市麻生区岡上621ほか,弥生　古墳　奈良　平安,35.57888406,139.4799192,0,0,1,1,1,1,0,0,0,0
14137011000,14137,麻生区No.110,岡上丸山遺跡,川崎市麻生区岡上675-1ほか,縄文　弥生　古墳　奈良　平安,35.57903526,139.4829273,0,1,1,1,1,1,0,0,0,0
14137011100,14137,麻生区No.111,,川崎市麻生区岡上184ほか,縄文　弥生　古墳　奈良　平安,35.58172978,139.487133,0,1,1,1,1,1,0,0,0,0
14137011200,14137,麻生区No.112,,川崎市麻生区岡上137ほか,縄文　弥生　古墳　奈良　平安,35.58145056,139.4882145,0,1,1,1,1,1,0,0,0,0
14137011300,14137,麻生区No.113,,川崎市麻生区岡上219ほか,縄文　弥生　古墳　奈良　平安,35.58104569,139.4858799,0,1,1,1,1,1,0,0,0,0
14137011400,14137,麻生区No.114,岡上廃寺推定地、岡上栗畑遺跡,川崎市麻生区岡上794,縄文　弥生　古墳　奈良　平安,35.57897942,139.4864464,0,1,1,1,1,1,0,0,0,0
14137011500,14137,麻生区No.115,,川崎市麻生区岡上815,縄文　弥生　古墳　奈良　平安,35.57673159,139.4845924,0,1,1,1,1,1,0,0,0,0
14137011600,14137,麻生区No.116,,川崎市麻生区岡上941,縄文,35.57558786,139.4820949,0,1,0,0,0,0,0,0,0,0
14137011700,14137,麻生区No.117,,川崎市麻生区岡上972ほか,縄文　弥生　奈良　平安,35.57500145,139.4812194,0,1,1,0,1,1,0,0,0,0
14137011800,14137,麻生区No.118,,川崎市麻生区岡上1330ほか,縄文,35.57176217,139.477872,0,1,0,0,0,0,0,0,0,0
14137011900,14137,麻生区No.119,,川崎市麻生区岡上1331ほか,弥生　奈良　平安,35.57180406,139.4760696,0,0,1,0,1,1,0,0,0,0
14137012000,14137,麻生区No.120,麻生台横穴墓群,川崎市麻生区上麻生7-16,古墳,35.58290886,139.5016831,0,0,0,1,0,0,0,0,0,0
14137012100,14137,麻生区No.121,金程向原遺跡第１地点,川崎市麻生区向原1-3ほか,縄文　奈良　平安,35.615639,139.500122,0,1,0,0,1,1,0,0,0,0
14137012200,14137,麻生区No.122,金程向原遺跡第２地点,川崎市麻生区金程3-16ほか,縄文　奈良　平安,35.61377295,139.4994581,0,1,0,0,1,1,0,0,0,0
14137012300,14137,麻生区No.123,潮見台遺跡Ｆ・Ｇ地点,川崎市麻生区百合丘3-21ほか,縄文　奈良　平安,35.601406,139.5186,0,1,0,0,1,1,0,0,0,0
14137012400,14137,麻生区No.124,五力田遺跡,川崎市麻生区五カ田278ほか,奈良　平安,35.60723693,139.4867047,0,0,0,0,1,1,0,0,0,0
14137012500,14137,麻生区No.125,五力田遺跡,川崎市麻生区五カ田300ほか,奈良　平安,35.60790684,139.4847478,0,0,0,0,1,1,0,0,0,0
14137012600,14137,麻生区No.126,王禅寺白山横穴募群,川崎市麻生区王禅寺1785,古墳,35.58540689,139.508144,0,0,0,1,0,0,0,0,0,0
14137012700,14137,麻生区No.127,王禅寺寺口横穴墓,川崎市麻生区王禅寺229ほか,古墳,35.57986989,139.5147798,0,0,0,1,0,0,0,0,0,0
14137012800,14137,麻生区No.128,王禅寺入口遺跡,川崎市麻生区王禅寺153ほか,奈良　平安,35.57982964,139.5120137,0,0,0,0,1,1,0,0,0,0
14137012900,14137,麻生区No.129,仲村横穴古墳群１区,川崎市麻生区上麻生7-9,古墳,35.58265059,139.5005845,0,0,0,1,0,0,0,0,0,0
14137013000,14137,麻生区No.130,仲村横穴古墳群２区,川崎市麻生区上麻生259-1,古墳,35.58148485,139.4998206,0,0,0,1,0,0,0,0,0,0
14137013100,14137,麻生区No.131,黒川地区遺跡群No.10遺跡,川崎市麻生区黒川104ほか,縄文,35.61554595,139.4698787,0,1,0,0,0,0,0,0,0,0
14137013200,14137,麻生区No.132,,川崎市麻生区黒川867ほか,縄文,35.62316548,139.4646926,0,1,0,0,0,0,0,0,0,0
14137013300,14137,麻生区No.133,黒川地区遺跡群No.9遺跡,川崎市麻生区黒川1073ほか,縄文,35.6182811,139.4641281,0,1,0,0,0,0,0,0,0,0
14137013400,14137,麻生区No.134,黒川地区遺跡群No.11遺跡,川崎市麻生区黒川936ほか,縄文,35.6163597,139.4601834,0,1,0,0,0,0,0,0,0,0
14137013500,14137,麻生区No.135,黒川丸山遺跡,川崎市麻生区黒川1643ほか,縄文,35.61726536,139.4536551,0,1,0,0,0,0,0,0,0,0
14137013600,14137,麻生区No.136,,川崎市麻生区早野765ほか,縄文,35.56990089,139.5174921,0,1,0,0,0,0,0,0,0,0
14137013700,14137,麻生区No.137,黒川地区遺跡群No.13遺跡,川崎市麻生区黒川1143ほか,縄文,35.62096075,139.4598002,0,1,0,0,0,0,0,0,0,0
14137013800,14137,麻生区No.138,黒川地区遺跡群No.14遺跡,川崎市麻生区黒川1141ほか,縄文,35.62002229,139.4600948,0,1,0,0,0,0,0,0,0,0
14137013900,14137,麻生区No.139,黒川地区遺跡群No.15遺跡,川崎市麻生区黒川989ほか,縄文,35.61967696,139.4619116,0,1,0,0,0,0,0,0,0,0
14137014000,14137,麻生区No.140,黒川地区遺跡群No.17遺跡,川崎市麻生区黒川1121ほか,縄文,35.61868619,139.4614138,0,1,0,0,0,0,0,0,0,0
14137014100,14137,麻生区No.141,黒川地区遺跡群No.18遺跡,川崎市麻生区黒川1155ほか,縄文,35.61926419,139.4597386,0,1,0,0,0,0,0,0,0,0
14137014200,14137,麻生区No.142,黒川地区遺跡群No.20遺跡,川崎市麻生区黒川1157ほか,縄文,35.61876706,139.4590027,0,1,0,0,0,0,0,0,0,0
14137014300,14137,麻生区No.143,黒川地区遺跡群No.23遺跡,川崎市麻生区黒川1236ほか,縄文,35.61716227,139.4566338,0,1,0,0,0,0,0,0,0,0
14137014400,14137,麻生区No.144,黒川地区遺跡群No.24・25遺跡,川崎市麻生区黒川1248ほか,縄文,35.6167644,139.4589302,0,1,0,0,0,0,0,0,0,0
14137014500,14137,麻生区No.145,黒川地区遺跡群No.26遺跡,川崎市麻生区黒川1283ほか,縄文,35.61729032,139.4635272,0,1,0,0,0,0,0,0,0,0
14137014600,14137,麻生区No.146,黒川地区遺跡群No.27遺跡,川崎市麻生区黒川1273ほか,縄文,35.615648,139.4631703,0,1,0,0,0,0,0,0,0,0
14137014700,14137,麻生区No.147,黒川地区遺跡群No.28遺跡,川崎市麻生区黒川1300ほか,縄文,35.614911,139.4641257,0,1,0,0,0,0,0,0,0,0
14137014800,14137,麻生区No.148,黒川地区遺跡群No.29遺跡,川崎市麻生区黒川726ほか,縄文,35.61553636,139.4661744,0,1,0,0,0,0,0,0,0,0
14137015000,14137,麻生区No.150,金井原遺跡,川崎市麻生区片平1600,縄文,35.59833356,139.4797318,0,1,0,0,0,0,0,0,0,0
14137015100,14137,麻生区No.151,川崎市麻生区土地区画整理事業地内遺跡,川崎市麻生区向原2-13ほか,縄文　古墳,35.61588019,139.4968832,0,1,0,1,0,0,0,0,0,0
14137015200,14137,麻生区No.152,王禅寺通やぐら遺跡,川崎市麻生区王禅寺371,中世　近世,35.58179237,139.5164087,0,0,0,0,0,0,1,1,0,0
14137015300,14137,麻生区No.153,亀井横穴墓群,川崎市麻生区上麻生7-23,古墳,35.57937167,139.5018517,0,0,0,1,0,0,0,0,0,0
14137015400,14137,麻生区No.154,花島横穴墓群,川崎市麻生区下麻生990,古墳,35.580406,139.508514,0,0,0,1,0,0,0,0,0,0
14137015500,14137,麻生区No.155,,川崎市麻生区岡上744-5,中世,35.5800684,139.4873734,0,0,0,0,0,0,1,0,0,0
14137015600,14137,麻生区No.156,黒川地区遺跡群No.８遺跡,川崎市麻生区黒川859,縄文,35.62348641,139.4656367,0,1,0,0,0,0,0,0,0,0
14137015700,14137,麻生区No.157,王禅寺東古墳,川崎市麻生区王禅寺東5-141付近,古墳,35.58104497,139.5136514,0,0,0,1,0,0,0,0,0,0
14137015800,14137,麻生区No.158,黒川明坪遺跡,川崎市麻生区黒川2120ほか,縄文　近世,35.61003471,139.4514643,0,1,0,0,0,0,0,1,0,0
14137015900,14137,麻生区No.159,,川崎市麻生区岡上1096,古墳,35.57749948,139.4816227,0,0,0,1,0,0,0,0,0,0
14137016000,14137,麻生区No.160,月讀神社境内遺跡,川崎市麻生区上麻生7-759ほか,縄文,35.58040022,139.5049126,0,1,0,0,0,0,0,0,0,0
14137016100,14137,麻生区No.161,東百合ヶ丘3丁目遺跡,川崎市宮前区潮見台24,縄文,35.59384673,139.5264873,0,1,0,0,0,0,0,0,0,0
14137016200,14137,麻生区No.162,上麻生大ヶ谷戸横穴墓群,川崎市麻生区上麻生5-20付近,古墳,35.59193505,139.4998183,0,0,0,1,0,0,0,0,0,0